
; ### Ellis' Pressure Advance / Linear Advance Calibration Tool ###
;
; Original Marlin linear advance calibration tool by Sineos [https://github.com/Sineos]
; Heavily modified/rewritten by Andrew Ellis [https://github.com/AndrewEllis93]
;
; -------------------------------------------
; Generated: Wed May 13 2026 14:12:16 GMT+1000 (Australian Eastern Standard Time)
; -------------------------------------------
;
; Advanced Mode: false
;
; Printer:
;  - Firmware: klipper
;  - Bed Shape: Rect
;  - Bed Size X: 297 mm
;  - Bed Size Y: 210 mm
;  - Origin Bed Center: false
;  - Travel Speed: 120 mm/s
;  - Nozzle Diameter: 0.6 mm
;  - Filament Diameter: 1.75 mm
;  - Extrusion Multiplier: 1
;
; Retraction / Z Hop:
;  - Retraction Distance: 10 mm
;  - Retract Speed: 35 mm/s
;  - Unretract Speed: 35 mm/s
;  - Z Hop Enable: true
;  - Z Hop Height: 0.1mm
;
; First Layer Settings:
;  - First Layer Height: 0.25 mm
;  - First Layer Printing Speed: 50 mm/s
;  - First Layer Fan Speed: 0%
;  - Anchor Option: anchor_frame
;
; Print Settings:
;  - Layer Height: 0.3 mm
;  - Print Speed: 100 mm/s
;  - Acceleration: Disabled
;  - Fan Speed: 100%
;
; Pressure Advance Stepping:
;  - PA Start Value: 0
;  - PA End Value: 1
;  - PA Increment: 0.05
;
; Start / End G-code:
;  - Hotend Temp: 220C
;  - Bed Temp: 60C
;  - Don't Add G28: true
;  - Don't Add Heating G-Codes: true
;  - Entered Start G-code: 
;       PRINT_START BED_TEMP={60} EXTRUDER_TEMP={220}
;  - Entered End G-code: 
;       PRINT_END ; End macro. Change name to match yours
;
; Calculated Values:
;  - Print Size X: 116.68 mm
;  - Print Size Y: 51.27 mm
;  - Number of Patterns to Print: 21
;  - PA Values: 0, 0.05, 0.1, 0.15, 0.2, 0.25, 0.3, 0.35, 0.4, 0.45, 0.5, 0.55, 0.6, 0.65, 0.7, 0.75, 0.8, 0.85, 0.9, 0.95, 1
;
; Prepare printing
;
PRINT_START BED_TEMP=60 EXTRUDER_TEMP=220
G21 ; Millimeter units
G90 ; Absolute XYZ
M83 ; Relative E
G92 E0 ; Reset extruder distance
;
;  Begin printing
;
M106 S0 ; Set fan speed
G1 E-10 F2100 ; Retract
G0 Z5 F7200 ; Z raise
G0 X90.158 Y79.3668 F7200 ; Move to start position
G0 Z0.25 F7200 ; Move to start layer height
G1 E10 F2100 ; Un-retract
SET_PRESSURE_ADVANCE ADVANCE=0 ; Set pressure advance to start value
M117 PA 0
G1 X90.158 Y121.7932 E3.46758 F3000 ; Draw perimeter (up)
G1 X206.842 Y121.7932 E9.53676 F3000 ; Draw perimeter (right)
G1 X206.842 Y79.3668 E3.46758 F3000 ; Draw perimeter (down)
G1 X90.158 Y79.3668 E9.53676 F3000 ; Draw perimeter (left)
G0 X90.9444 Y80.1531 F7200 ; Step inwards to print next perimeter
G1 X90.9444 Y121.0069 E3.33904 F3000 ; Draw perimeter (up)
G1 X206.0556 Y121.0069 E9.40822 F3000 ; Draw perimeter (right)
G1 X206.0556 Y80.1531 E3.33904 F3000 ; Draw perimeter (down)
G1 X90.9444 Y80.1531 E9.40822 F3000 ; Draw perimeter (left)
G0 X91.7307 Y80.9395 F7200 ; Step inwards to print next perimeter
G1 X91.7307 Y120.2205 E3.2105 F3000 ; Draw perimeter (up)
G1 X205.2693 Y120.2205 E9.27968 F3000 ; Draw perimeter (right)
G1 X205.2693 Y80.9395 E3.2105 F3000 ; Draw perimeter (down)
G1 X91.7307 Y80.9395 E9.27968 F3000 ; Draw perimeter (left)
G0 X92.5171 Y81.7258 F7200 ; Step inwards to print next perimeter
G1 X92.5171 Y119.4342 E3.08196 F3000 ; Draw perimeter (up)
G1 X204.4829 Y119.4342 E9.15114 F3000 ; Draw perimeter (right)
G1 X204.4829 Y81.7258 E3.08196 F3000 ; Draw perimeter (down)
G1 X92.5171 Y81.7258 E9.15114 F3000 ; Draw perimeter (left)
G1 E-10 F2100 ; Retract
G1 Z0.35 F7200 ; Z hop
G0 X90.158 Y122.5796 F7200 ; Move to box start
G1 Z0.25 F7200 ; Z hop return
G1 E10 F2100 ; Un-retract
G1 X90.158 Y131.3659 E0.71812 F3000 ; Draw perimeter (up)
G1 X184.8981 Y131.3659 E7.74325 F3000 ; Draw perimeter (right)
G1 X184.8981 Y122.5796 E0.71812 F3000 ; Draw perimeter (down)
G1 X90.158 Y122.5796 E7.74325 F3000 ; Draw perimeter (left)
G0 X90.9444 Y123.3659 F7200 ; Step inwards to print next perimeter
G1 X90.9444 Y130.5796 E0.58958 F3000 ; Draw perimeter (up)
G1 X184.1118 Y130.5796 E7.61471 F3000 ; Draw perimeter (right)
G1 X184.1118 Y123.3659 E0.58958 F3000 ; Draw perimeter (down)
G1 X90.9444 Y123.3659 E7.61471 F3000 ; Draw perimeter (left)
G0 X91.7307 Y124.1523 F7200 ; Step inwards to print next perimeter
G1 X91.7307 Y129.7932 E0.46104 F3000 ; Draw perimeter (up)
G1 X183.3254 Y129.7932 E7.48617 F3000 ; Draw perimeter (right)
G1 X183.3254 Y124.1523 E0.46104 F3000 ; Draw perimeter (down)
G1 X91.7307 Y124.1523 E7.48617 F3000 ; Draw perimeter (left)
G0 X92.5171 Y124.9386 F7200 ; Step inwards to print next perimeter
G1 X92.5171 Y129.0069 E0.3325 F3000 ; Draw perimeter (up)
G1 X182.5391 Y129.0069 E7.35763 F3000 ; Draw perimeter (right)
G1 X182.5391 Y124.9386 E0.3325 F3000 ; Draw perimeter (down)
G1 X92.5171 Y124.9386 E7.35763 F3000 ; Draw perimeter (left)
G0 X93.0771 Y125.4986 F7200 ; Move to fill start
G0 X94.1891 Y125.4986 F7200 ; Move
G1 X93.0771 Y126.6107 E0.12854 F3000 ; Fill
G0 X93.0771 Y127.7227 F7200 ; Move
G1 X95.3012 Y125.4986 E0.25708 F3000 ; Fill
G0 X96.4133 Y125.4986 F7200 ; Move
G1 X93.465 Y128.4469 E0.34078 F3000 ; Fill
G0 X94.5771 Y128.4469 F7200 ; Move
G1 X97.5253 Y125.4986 E0.34078 F3000 ; Fill
G0 X98.6374 Y125.4986 F7200 ; Move
G1 X95.6892 Y128.4469 E0.34078 F3000 ; Fill
G0 X96.8012 Y128.4469 F7200 ; Move
G1 X99.7495 Y125.4986 E0.34078 F3000 ; Fill
G0 X100.8615 Y125.4986 F7200 ; Move
G1 X97.9133 Y128.4469 E0.34078 F3000 ; Fill
G0 X99.0253 Y128.4469 F7200 ; Move
G1 X101.9736 Y125.4986 E0.34078 F3000 ; Fill
G0 X103.0857 Y125.4986 F7200 ; Move
G1 X100.1374 Y128.4469 E0.34078 F3000 ; Fill
G0 X101.2495 Y128.4469 F7200 ; Move
G1 X104.1977 Y125.4986 E0.34078 F3000 ; Fill
G0 X105.3098 Y125.4986 F7200 ; Move
G1 X102.3615 Y128.4469 E0.34078 F3000 ; Fill
G0 X103.4736 Y128.4469 F7200 ; Move
G1 X106.4219 Y125.4986 E0.34078 F3000 ; Fill
G0 X107.5339 Y125.4986 F7200 ; Move
G1 X104.5857 Y128.4469 E0.34078 F3000 ; Fill
G0 X105.6977 Y128.4469 F7200 ; Move
G1 X108.646 Y125.4986 E0.34078 F3000 ; Fill
G0 X109.7581 Y125.4986 F7200 ; Move
G1 X106.8098 Y128.4469 E0.34078 F3000 ; Fill
G0 X107.9219 Y128.4469 F7200 ; Move
G1 X110.8701 Y125.4986 E0.34078 F3000 ; Fill
G0 X111.9822 Y125.4986 F7200 ; Move
G1 X109.0339 Y128.4469 E0.34078 F3000 ; Fill
G0 X110.146 Y128.4469 F7200 ; Move
G1 X113.0943 Y125.4986 E0.34078 F3000 ; Fill
G0 X114.2063 Y125.4986 F7200 ; Move
G1 X111.2581 Y128.4469 E0.34078 F3000 ; Fill
G0 X112.3701 Y128.4469 F7200 ; Move
G1 X115.3184 Y125.4986 E0.34078 F3000 ; Fill
G0 X116.4305 Y125.4986 F7200 ; Move
G1 X113.4822 Y128.4469 E0.34078 F3000 ; Fill
G0 X114.5943 Y128.4469 F7200 ; Move
G1 X117.5425 Y125.4986 E0.34078 F3000 ; Fill
G0 X118.6546 Y125.4986 F7200 ; Move
G1 X115.7063 Y128.4469 E0.34078 F3000 ; Fill
G0 X116.8184 Y128.4469 F7200 ; Move
G1 X119.7667 Y125.4986 E0.34078 F3000 ; Fill
G0 X120.8787 Y125.4986 F7200 ; Move
G1 X117.9305 Y128.4469 E0.34078 F3000 ; Fill
G0 X119.0425 Y128.4469 F7200 ; Move
G1 X121.9908 Y125.4986 E0.34078 F3000 ; Fill
G0 X123.1029 Y125.4986 F7200 ; Move
G1 X120.1546 Y128.4469 E0.34078 F3000 ; Fill
G0 X121.2667 Y128.4469 F7200 ; Move
G1 X124.2149 Y125.4986 E0.34078 F3000 ; Fill
G0 X125.327 Y125.4986 F7200 ; Move
G1 X122.3787 Y128.4469 E0.34078 F3000 ; Fill
G0 X123.4908 Y128.4469 F7200 ; Move
G1 X126.4391 Y125.4986 E0.34078 F3000 ; Fill
G0 X127.5511 Y125.4986 F7200 ; Move
G1 X124.6029 Y128.4469 E0.34078 F3000 ; Fill
G0 X125.7149 Y128.4469 F7200 ; Move
G1 X128.6632 Y125.4986 E0.34078 F3000 ; Fill
G0 X129.7753 Y125.4986 F7200 ; Move
G1 X126.827 Y128.4469 E0.34078 F3000 ; Fill
G0 X127.9391 Y128.4469 F7200 ; Move
G1 X130.8873 Y125.4986 E0.34078 F3000 ; Fill
G0 X131.9994 Y125.4986 F7200 ; Move
G1 X129.0511 Y128.4469 E0.34078 F3000 ; Fill
G0 X130.1632 Y128.4469 F7200 ; Move
G1 X133.1115 Y125.4986 E0.34078 F3000 ; Fill
G0 X134.2235 Y125.4986 F7200 ; Move
G1 X131.2753 Y128.4469 E0.34078 F3000 ; Fill
G0 X132.3873 Y128.4469 F7200 ; Move
G1 X135.3356 Y125.4986 E0.34078 F3000 ; Fill
G0 X136.4477 Y125.4986 F7200 ; Move
G1 X133.4994 Y128.4469 E0.34078 F3000 ; Fill
G0 X134.6115 Y128.4469 F7200 ; Move
G1 X137.5597 Y125.4986 E0.34078 F3000 ; Fill
G0 X138.6718 Y125.4986 F7200 ; Move
G1 X135.7235 Y128.4469 E0.34078 F3000 ; Fill
G0 X136.8356 Y128.4469 F7200 ; Move
G1 X139.7839 Y125.4986 E0.34078 F3000 ; Fill
G0 X140.8959 Y125.4986 F7200 ; Move
G1 X137.9477 Y128.4469 E0.34078 F3000 ; Fill
G0 X139.0597 Y128.4469 F7200 ; Move
G1 X142.008 Y125.4986 E0.34078 F3000 ; Fill
G0 X143.1201 Y125.4986 F7200 ; Move
G1 X140.1718 Y128.4469 E0.34078 F3000 ; Fill
G0 X141.2839 Y128.4469 F7200 ; Move
G1 X144.2321 Y125.4986 E0.34078 F3000 ; Fill
G0 X145.3442 Y125.4986 F7200 ; Move
G1 X142.3959 Y128.4469 E0.34078 F3000 ; Fill
G0 X143.508 Y128.4469 F7200 ; Move
G1 X146.4562 Y125.4986 E0.34078 F3000 ; Fill
G0 X147.5683 Y125.4986 F7200 ; Move
G1 X144.6201 Y128.4469 E0.34078 F3000 ; Fill
G0 X145.7321 Y128.4469 F7200 ; Move
G1 X148.6804 Y125.4986 E0.34078 F3000 ; Fill
G0 X149.7924 Y125.4986 F7200 ; Move
G1 X146.8442 Y128.4469 E0.34078 F3000 ; Fill
G0 X147.9563 Y128.4469 F7200 ; Move
G1 X150.9045 Y125.4986 E0.34078 F3000 ; Fill
G0 X152.0166 Y125.4986 F7200 ; Move
G1 X149.0683 Y128.4469 E0.34078 F3000 ; Fill
G0 X150.1804 Y128.4469 F7200 ; Move
G1 X153.1286 Y125.4986 E0.34078 F3000 ; Fill
G0 X154.2407 Y125.4986 F7200 ; Move
G1 X151.2925 Y128.4469 E0.34078 F3000 ; Fill
G0 X152.4045 Y128.4469 F7200 ; Move
G1 X155.3528 Y125.4986 E0.34078 F3000 ; Fill
G0 X156.4648 Y125.4986 F7200 ; Move
G1 X153.5166 Y128.4469 E0.34078 F3000 ; Fill
G0 X154.6287 Y128.4469 F7200 ; Move
G1 X157.5769 Y125.4986 E0.34078 F3000 ; Fill
G0 X158.689 Y125.4986 F7200 ; Move
G1 X155.7407 Y128.4469 E0.34078 F3000 ; Fill
G0 X156.8528 Y128.4469 F7200 ; Move
G1 X159.801 Y125.4986 E0.34078 F3000 ; Fill
G0 X160.9131 Y125.4986 F7200 ; Move
G1 X157.9649 Y128.4469 E0.34078 F3000 ; Fill
G0 X159.0769 Y128.4469 F7200 ; Move
G1 X162.0252 Y125.4986 E0.34078 F3000 ; Fill
G0 X163.1372 Y125.4986 F7200 ; Move
G1 X160.189 Y128.4469 E0.34078 F3000 ; Fill
G0 X161.3011 Y128.4469 F7200 ; Move
G1 X164.2493 Y125.4986 E0.34078 F3000 ; Fill
G0 X165.3614 Y125.4986 F7200 ; Move
G1 X162.4131 Y128.4469 E0.34078 F3000 ; Fill
G0 X163.5252 Y128.4469 F7200 ; Move
G1 X166.4734 Y125.4986 E0.34078 F3000 ; Fill
G0 X167.5855 Y125.4986 F7200 ; Move
G1 X164.6373 Y128.4469 E0.34078 F3000 ; Fill
G0 X165.7493 Y128.4469 F7200 ; Move
G1 X168.6976 Y125.4986 E0.34078 F3000 ; Fill
G0 X169.8096 Y125.4986 F7200 ; Move
G1 X166.8614 Y128.4469 E0.34078 F3000 ; Fill
G0 X167.9735 Y128.4469 F7200 ; Move
G1 X170.9217 Y125.4986 E0.34078 F3000 ; Fill
G0 X172.0338 Y125.4986 F7200 ; Move
G1 X169.0855 Y128.4469 E0.34078 F3000 ; Fill
G0 X170.1976 Y128.4469 F7200 ; Move
G1 X173.1458 Y125.4986 E0.34078 F3000 ; Fill
G0 X174.2579 Y125.4986 F7200 ; Move
G1 X171.3097 Y128.4469 E0.34078 F3000 ; Fill
G0 X172.4217 Y128.4469 F7200 ; Move
G1 X175.37 Y125.4986 E0.34078 F3000 ; Fill
G0 X176.482 Y125.4986 F7200 ; Move
G1 X173.5338 Y128.4469 E0.34078 F3000 ; Fill
G0 X174.6459 Y128.4469 F7200 ; Move
G1 X177.5941 Y125.4986 E0.34078 F3000 ; Fill
G0 X178.7062 Y125.4986 F7200 ; Move
G1 X175.7579 Y128.4469 E0.34078 F3000 ; Fill
G0 X176.87 Y128.4469 F7200 ; Move
G1 X179.8182 Y125.4986 E0.34078 F3000 ; Fill
G0 X180.9303 Y125.4986 F7200 ; Move
G1 X177.982 Y128.4469 E0.34078 F3000 ; Fill
G0 X179.0941 Y128.4469 F7200 ; Move
G1 X181.9791 Y125.5619 E0.33346 F3000 ; Fill
G0 X181.9791 Y126.674 F7200 ; Move
G1 X180.2062 Y128.4469 E0.20492 F3000 ; Fill
G0 X181.3182 Y128.4469 F7200 ; Move
G1 X181.9791 Y127.7861 E0.07638 F3000 ; Fill
G0 Z0.25 F7200 ; Move to layer height
G1 E-10 F2100 ; Retract
G1 Z0.35 F7200 ; Z hop
G0 X95.6335 Y82.2858 F7200 ; Move to pattern start

G1 Z0.25 F7200 ; Z hop return
G1 E10 F2100 ; Un-retract
SET_PRESSURE_ADVANCE ADVANCE=0 ; Set pressure advance
M117 PA 0
G1 X113.9277 Y100.58 E1.67085 F3000 ; Print pattern wall
G1 X95.6335 Y118.8742 E1.67085 F3000 ; Print pattern wall
G1 E-10 F2100 ; Retract
G1 Z0.35 F7200 ; Z hop
G0 X96.4971 Y82.2858 F7200 ; Move to start next pattern wall
G1 Z0.25 F7200 ; Z hop return
G1 E10 F2100 ; Un-retract
G1 X114.7912 Y100.58 E1.67085 F3000 ; Print pattern wall
G1 X96.4971 Y118.8742 E1.67085 F3000 ; Print pattern wall
G1 E-10 F2100 ; Retract
G1 Z0.35 F7200 ; Z hop
G0 X97.3606 Y82.2858 F7200 ; Move to start next pattern wall
G1 Z0.25 F7200 ; Z hop return
G1 E10 F2100 ; Un-retract
G1 X115.6548 Y100.58 E1.67085 F3000 ; Print pattern wall
G1 X97.3606 Y118.8742 E1.67085 F3000 ; Print pattern wall
G1 E-10 F2100 ; Retract
G1 Z0.35 F7200 ; Z hop
G0 X100.0356 Y82.2858 F7200 ; Move to next pattern
G1 Z0.25 F7200 ; Z hop return
G1 E10 F2100 ; Un-retract
SET_PRESSURE_ADVANCE ADVANCE=0.05 ; Set pressure advance
M117 PA 0.05
G1 X118.3298 Y100.58 E1.67085 F3000 ; Print pattern wall
G1 X100.0356 Y118.8742 E1.67085 F3000 ; Print pattern wall
G1 E-10 F2100 ; Retract
G1 Z0.35 F7200 ; Z hop
G0 X100.8992 Y82.2858 F7200 ; Move to start next pattern wall
G1 Z0.25 F7200 ; Z hop return
G1 E10 F2100 ; Un-retract
G1 X119.1933 Y100.58 E1.67085 F3000 ; Print pattern wall
G1 X100.8992 Y118.8742 E1.67085 F3000 ; Print pattern wall
G1 E-10 F2100 ; Retract
G1 Z0.35 F7200 ; Z hop
G0 X101.7627 Y82.2858 F7200 ; Move to start next pattern wall
G1 Z0.25 F7200 ; Z hop return
G1 E10 F2100 ; Un-retract
G1 X120.0569 Y100.58 E1.67085 F3000 ; Print pattern wall
G1 X101.7627 Y118.8742 E1.67085 F3000 ; Print pattern wall
G1 E-10 F2100 ; Retract
G1 Z0.35 F7200 ; Z hop
G0 X104.4377 Y82.2858 F7200 ; Move to next pattern
G1 Z0.25 F7200 ; Z hop return
G1 E10 F2100 ; Un-retract
SET_PRESSURE_ADVANCE ADVANCE=0.1 ; Set pressure advance
M117 PA 0.1
G1 X122.7319 Y100.58 E1.67085 F3000 ; Print pattern wall
G1 X104.4377 Y118.8742 E1.67085 F3000 ; Print pattern wall
G1 E-10 F2100 ; Retract
G1 Z0.35 F7200 ; Z hop
G0 X105.3013 Y82.2858 F7200 ; Move to start next pattern wall
G1 Z0.25 F7200 ; Z hop return
G1 E10 F2100 ; Un-retract
G1 X123.5954 Y100.58 E1.67085 F3000 ; Print pattern wall
G1 X105.3013 Y118.8742 E1.67085 F3000 ; Print pattern wall
G1 E-10 F2100 ; Retract
G1 Z0.35 F7200 ; Z hop
G0 X106.1648 Y82.2858 F7200 ; Move to start next pattern wall
G1 Z0.25 F7200 ; Z hop return
G1 E10 F2100 ; Un-retract
G1 X124.459 Y100.58 E1.67085 F3000 ; Print pattern wall
G1 X106.1648 Y118.8742 E1.67085 F3000 ; Print pattern wall
G1 E-10 F2100 ; Retract
G1 Z0.35 F7200 ; Z hop
G0 X108.8398 Y82.2858 F7200 ; Move to next pattern
G1 Z0.25 F7200 ; Z hop return
G1 E10 F2100 ; Un-retract
SET_PRESSURE_ADVANCE ADVANCE=0.15 ; Set pressure advance
M117 PA 0.15
G1 X127.134 Y100.58 E1.67085 F3000 ; Print pattern wall
G1 X108.8398 Y118.8742 E1.67085 F3000 ; Print pattern wall
G1 E-10 F2100 ; Retract
G1 Z0.35 F7200 ; Z hop
G0 X109.7034 Y82.2858 F7200 ; Move to start next pattern wall
G1 Z0.25 F7200 ; Z hop return
G1 E10 F2100 ; Un-retract
G1 X127.9975 Y100.58 E1.67085 F3000 ; Print pattern wall
G1 X109.7034 Y118.8742 E1.67085 F3000 ; Print pattern wall
G1 E-10 F2100 ; Retract
G1 Z0.35 F7200 ; Z hop
G0 X110.5669 Y82.2858 F7200 ; Move to start next pattern wall
G1 Z0.25 F7200 ; Z hop return
G1 E10 F2100 ; Un-retract
G1 X128.8611 Y100.58 E1.67085 F3000 ; Print pattern wall
G1 X110.5669 Y118.8742 E1.67085 F3000 ; Print pattern wall
G1 E-10 F2100 ; Retract
G1 Z0.35 F7200 ; Z hop
G0 X113.2419 Y82.2858 F7200 ; Move to next pattern
G1 Z0.25 F7200 ; Z hop return
G1 E10 F2100 ; Un-retract
SET_PRESSURE_ADVANCE ADVANCE=0.2 ; Set pressure advance
M117 PA 0.2
G1 X131.5361 Y100.58 E1.67085 F3000 ; Print pattern wall
G1 X113.2419 Y118.8742 E1.67085 F3000 ; Print pattern wall
G1 E-10 F2100 ; Retract
G1 Z0.35 F7200 ; Z hop
G0 X114.1054 Y82.2858 F7200 ; Move to start next pattern wall
G1 Z0.25 F7200 ; Z hop return
G1 E10 F2100 ; Un-retract
G1 X132.3996 Y100.58 E1.67085 F3000 ; Print pattern wall
G1 X114.1054 Y118.8742 E1.67085 F3000 ; Print pattern wall
G1 E-10 F2100 ; Retract
G1 Z0.35 F7200 ; Z hop
G0 X114.969 Y82.2858 F7200 ; Move to start next pattern wall
G1 Z0.25 F7200 ; Z hop return
G1 E10 F2100 ; Un-retract
G1 X133.2631 Y100.58 E1.67085 F3000 ; Print pattern wall
G1 X114.969 Y118.8742 E1.67085 F3000 ; Print pattern wall
G1 E-10 F2100 ; Retract
G1 Z0.35 F7200 ; Z hop
G0 X117.644 Y82.2858 F7200 ; Move to next pattern
G1 Z0.25 F7200 ; Z hop return
G1 E10 F2100 ; Un-retract
SET_PRESSURE_ADVANCE ADVANCE=0.25 ; Set pressure advance
M117 PA 0.25
G1 X135.9381 Y100.58 E1.67085 F3000 ; Print pattern wall
G1 X117.644 Y118.8742 E1.67085 F3000 ; Print pattern wall
G1 E-10 F2100 ; Retract
G1 Z0.35 F7200 ; Z hop
G0 X118.5075 Y82.2858 F7200 ; Move to start next pattern wall
G1 Z0.25 F7200 ; Z hop return
G1 E10 F2100 ; Un-retract
G1 X136.8017 Y100.58 E1.67085 F3000 ; Print pattern wall
G1 X118.5075 Y118.8742 E1.67085 F3000 ; Print pattern wall
G1 E-10 F2100 ; Retract
G1 Z0.35 F7200 ; Z hop
G0 X119.3711 Y82.2858 F7200 ; Move to start next pattern wall
G1 Z0.25 F7200 ; Z hop return
G1 E10 F2100 ; Un-retract
G1 X137.6652 Y100.58 E1.67085 F3000 ; Print pattern wall
G1 X119.3711 Y118.8742 E1.67085 F3000 ; Print pattern wall
G1 E-10 F2100 ; Retract
G1 Z0.35 F7200 ; Z hop
G0 X122.0461 Y82.2858 F7200 ; Move to next pattern
G1 Z0.25 F7200 ; Z hop return
G1 E10 F2100 ; Un-retract
SET_PRESSURE_ADVANCE ADVANCE=0.3 ; Set pressure advance
M117 PA 0.3
G1 X140.3402 Y100.58 E1.67085 F3000 ; Print pattern wall
G1 X122.0461 Y118.8742 E1.67085 F3000 ; Print pattern wall
G1 E-10 F2100 ; Retract
G1 Z0.35 F7200 ; Z hop
G0 X122.9096 Y82.2858 F7200 ; Move to start next pattern wall
G1 Z0.25 F7200 ; Z hop return
G1 E10 F2100 ; Un-retract
G1 X141.2038 Y100.58 E1.67085 F3000 ; Print pattern wall
G1 X122.9096 Y118.8742 E1.67085 F3000 ; Print pattern wall
G1 E-10 F2100 ; Retract
G1 Z0.35 F7200 ; Z hop
G0 X123.7732 Y82.2858 F7200 ; Move to start next pattern wall
G1 Z0.25 F7200 ; Z hop return
G1 E10 F2100 ; Un-retract
G1 X142.0673 Y100.58 E1.67085 F3000 ; Print pattern wall
G1 X123.7732 Y118.8742 E1.67085 F3000 ; Print pattern wall
G1 E-10 F2100 ; Retract
G1 Z0.35 F7200 ; Z hop
G0 X126.4482 Y82.2858 F7200 ; Move to next pattern
G1 Z0.25 F7200 ; Z hop return
G1 E10 F2100 ; Un-retract
SET_PRESSURE_ADVANCE ADVANCE=0.35 ; Set pressure advance
M117 PA 0.35
G1 X144.7423 Y100.58 E1.67085 F3000 ; Print pattern wall
G1 X126.4482 Y118.8742 E1.67085 F3000 ; Print pattern wall
G1 E-10 F2100 ; Retract
G1 Z0.35 F7200 ; Z hop
G0 X127.3117 Y82.2858 F7200 ; Move to start next pattern wall
G1 Z0.25 F7200 ; Z hop return
G1 E10 F2100 ; Un-retract
G1 X145.6059 Y100.58 E1.67085 F3000 ; Print pattern wall
G1 X127.3117 Y118.8742 E1.67085 F3000 ; Print pattern wall
G1 E-10 F2100 ; Retract
G1 Z0.35 F7200 ; Z hop
G0 X128.1753 Y82.2858 F7200 ; Move to start next pattern wall
G1 Z0.25 F7200 ; Z hop return
G1 E10 F2100 ; Un-retract
G1 X146.4694 Y100.58 E1.67085 F3000 ; Print pattern wall
G1 X128.1753 Y118.8742 E1.67085 F3000 ; Print pattern wall
G1 E-10 F2100 ; Retract
G1 Z0.35 F7200 ; Z hop
G0 X130.8503 Y82.2858 F7200 ; Move to next pattern
G1 Z0.25 F7200 ; Z hop return
G1 E10 F2100 ; Un-retract
SET_PRESSURE_ADVANCE ADVANCE=0.4 ; Set pressure advance
M117 PA 0.4
G1 X149.1444 Y100.58 E1.67085 F3000 ; Print pattern wall
G1 X130.8503 Y118.8742 E1.67085 F3000 ; Print pattern wall
G1 E-10 F2100 ; Retract
G1 Z0.35 F7200 ; Z hop
G0 X131.7138 Y82.2858 F7200 ; Move to start next pattern wall
G1 Z0.25 F7200 ; Z hop return
G1 E10 F2100 ; Un-retract
G1 X150.008 Y100.58 E1.67085 F3000 ; Print pattern wall
G1 X131.7138 Y118.8742 E1.67085 F3000 ; Print pattern wall
G1 E-10 F2100 ; Retract
G1 Z0.35 F7200 ; Z hop
G0 X132.5774 Y82.2858 F7200 ; Move to start next pattern wall
G1 Z0.25 F7200 ; Z hop return
G1 E10 F2100 ; Un-retract
G1 X150.8715 Y100.58 E1.67085 F3000 ; Print pattern wall
G1 X132.5774 Y118.8742 E1.67085 F3000 ; Print pattern wall
G1 E-10 F2100 ; Retract
G1 Z0.35 F7200 ; Z hop
G0 X135.2524 Y82.2858 F7200 ; Move to next pattern
G1 Z0.25 F7200 ; Z hop return
G1 E10 F2100 ; Un-retract
SET_PRESSURE_ADVANCE ADVANCE=0.45 ; Set pressure advance
M117 PA 0.45
G1 X153.5465 Y100.58 E1.67085 F3000 ; Print pattern wall
G1 X135.2524 Y118.8742 E1.67085 F3000 ; Print pattern wall
G1 E-10 F2100 ; Retract
G1 Z0.35 F7200 ; Z hop
G0 X136.1159 Y82.2858 F7200 ; Move to start next pattern wall
G1 Z0.25 F7200 ; Z hop return
G1 E10 F2100 ; Un-retract
G1 X154.4101 Y100.58 E1.67085 F3000 ; Print pattern wall
G1 X136.1159 Y118.8742 E1.67085 F3000 ; Print pattern wall
G1 E-10 F2100 ; Retract
G1 Z0.35 F7200 ; Z hop
G0 X136.9795 Y82.2858 F7200 ; Move to start next pattern wall
G1 Z0.25 F7200 ; Z hop return
G1 E10 F2100 ; Un-retract
G1 X155.2736 Y100.58 E1.67085 F3000 ; Print pattern wall
G1 X136.9795 Y118.8742 E1.67085 F3000 ; Print pattern wall
G1 E-10 F2100 ; Retract
G1 Z0.35 F7200 ; Z hop
G0 X139.6545 Y82.2858 F7200 ; Move to next pattern
G1 Z0.25 F7200 ; Z hop return
G1 E10 F2100 ; Un-retract
SET_PRESSURE_ADVANCE ADVANCE=0.5 ; Set pressure advance
M117 PA 0.5
G1 X157.9486 Y100.58 E1.67085 F3000 ; Print pattern wall
G1 X139.6545 Y118.8742 E1.67085 F3000 ; Print pattern wall
G1 E-10 F2100 ; Retract
G1 Z0.35 F7200 ; Z hop
G0 X140.518 Y82.2858 F7200 ; Move to start next pattern wall
G1 Z0.25 F7200 ; Z hop return
G1 E10 F2100 ; Un-retract
G1 X158.8122 Y100.58 E1.67085 F3000 ; Print pattern wall
G1 X140.518 Y118.8742 E1.67085 F3000 ; Print pattern wall
G1 E-10 F2100 ; Retract
G1 Z0.35 F7200 ; Z hop
G0 X141.3815 Y82.2858 F7200 ; Move to start next pattern wall
G1 Z0.25 F7200 ; Z hop return
G1 E10 F2100 ; Un-retract
G1 X159.6757 Y100.58 E1.67085 F3000 ; Print pattern wall
G1 X141.3815 Y118.8742 E1.67085 F3000 ; Print pattern wall
G1 E-10 F2100 ; Retract
G1 Z0.35 F7200 ; Z hop
G0 X144.0565 Y82.2858 F7200 ; Move to next pattern
G1 Z0.25 F7200 ; Z hop return
G1 E10 F2100 ; Un-retract
SET_PRESSURE_ADVANCE ADVANCE=0.55 ; Set pressure advance
M117 PA 0.55
G1 X162.3507 Y100.58 E1.67085 F3000 ; Print pattern wall
G1 X144.0565 Y118.8742 E1.67085 F3000 ; Print pattern wall
G1 E-10 F2100 ; Retract
G1 Z0.35 F7200 ; Z hop
G0 X144.9201 Y82.2858 F7200 ; Move to start next pattern wall
G1 Z0.25 F7200 ; Z hop return
G1 E10 F2100 ; Un-retract
G1 X163.2142 Y100.58 E1.67085 F3000 ; Print pattern wall
G1 X144.9201 Y118.8742 E1.67085 F3000 ; Print pattern wall
G1 E-10 F2100 ; Retract
G1 Z0.35 F7200 ; Z hop
G0 X145.7836 Y82.2858 F7200 ; Move to start next pattern wall
G1 Z0.25 F7200 ; Z hop return
G1 E10 F2100 ; Un-retract
G1 X164.0778 Y100.58 E1.67085 F3000 ; Print pattern wall
G1 X145.7836 Y118.8742 E1.67085 F3000 ; Print pattern wall
G1 E-10 F2100 ; Retract
G1 Z0.35 F7200 ; Z hop
G0 X148.4586 Y82.2858 F7200 ; Move to next pattern
G1 Z0.25 F7200 ; Z hop return
G1 E10 F2100 ; Un-retract
SET_PRESSURE_ADVANCE ADVANCE=0.6 ; Set pressure advance
M117 PA 0.6
G1 X166.7528 Y100.58 E1.67085 F3000 ; Print pattern wall
G1 X148.4586 Y118.8742 E1.67085 F3000 ; Print pattern wall
G1 E-10 F2100 ; Retract
G1 Z0.35 F7200 ; Z hop
G0 X149.3222 Y82.2858 F7200 ; Move to start next pattern wall
G1 Z0.25 F7200 ; Z hop return
G1 E10 F2100 ; Un-retract
G1 X167.6163 Y100.58 E1.67085 F3000 ; Print pattern wall
G1 X149.3222 Y118.8742 E1.67085 F3000 ; Print pattern wall
G1 E-10 F2100 ; Retract
G1 Z0.35 F7200 ; Z hop
G0 X150.1857 Y82.2858 F7200 ; Move to start next pattern wall
G1 Z0.25 F7200 ; Z hop return
G1 E10 F2100 ; Un-retract
G1 X168.4799 Y100.58 E1.67085 F3000 ; Print pattern wall
G1 X150.1857 Y118.8742 E1.67085 F3000 ; Print pattern wall
G1 E-10 F2100 ; Retract
G1 Z0.35 F7200 ; Z hop
G0 X152.8607 Y82.2858 F7200 ; Move to next pattern
G1 Z0.25 F7200 ; Z hop return
G1 E10 F2100 ; Un-retract
SET_PRESSURE_ADVANCE ADVANCE=0.65 ; Set pressure advance
M117 PA 0.65
G1 X171.1549 Y100.58 E1.67085 F3000 ; Print pattern wall
G1 X152.8607 Y118.8742 E1.67085 F3000 ; Print pattern wall
G1 E-10 F2100 ; Retract
G1 Z0.35 F7200 ; Z hop
G0 X153.7243 Y82.2858 F7200 ; Move to start next pattern wall
G1 Z0.25 F7200 ; Z hop return
G1 E10 F2100 ; Un-retract
G1 X172.0184 Y100.58 E1.67085 F3000 ; Print pattern wall
G1 X153.7243 Y118.8742 E1.67085 F3000 ; Print pattern wall
G1 E-10 F2100 ; Retract
G1 Z0.35 F7200 ; Z hop
G0 X154.5878 Y82.2858 F7200 ; Move to start next pattern wall
G1 Z0.25 F7200 ; Z hop return
G1 E10 F2100 ; Un-retract
G1 X172.882 Y100.58 E1.67085 F3000 ; Print pattern wall
G1 X154.5878 Y118.8742 E1.67085 F3000 ; Print pattern wall
G1 E-10 F2100 ; Retract
G1 Z0.35 F7200 ; Z hop
G0 X157.2628 Y82.2858 F7200 ; Move to next pattern
G1 Z0.25 F7200 ; Z hop return
G1 E10 F2100 ; Un-retract
SET_PRESSURE_ADVANCE ADVANCE=0.7 ; Set pressure advance
M117 PA 0.7
G1 X175.557 Y100.58 E1.67085 F3000 ; Print pattern wall
G1 X157.2628 Y118.8742 E1.67085 F3000 ; Print pattern wall
G1 E-10 F2100 ; Retract
G1 Z0.35 F7200 ; Z hop
G0 X158.1264 Y82.2858 F7200 ; Move to start next pattern wall
G1 Z0.25 F7200 ; Z hop return
G1 E10 F2100 ; Un-retract
G1 X176.4205 Y100.58 E1.67085 F3000 ; Print pattern wall
G1 X158.1264 Y118.8742 E1.67085 F3000 ; Print pattern wall
G1 E-10 F2100 ; Retract
G1 Z0.35 F7200 ; Z hop
G0 X158.9899 Y82.2858 F7200 ; Move to start next pattern wall
G1 Z0.25 F7200 ; Z hop return
G1 E10 F2100 ; Un-retract
G1 X177.2841 Y100.58 E1.67085 F3000 ; Print pattern wall
G1 X158.9899 Y118.8742 E1.67085 F3000 ; Print pattern wall
G1 E-10 F2100 ; Retract
G1 Z0.35 F7200 ; Z hop
G0 X161.6649 Y82.2858 F7200 ; Move to next pattern
G1 Z0.25 F7200 ; Z hop return
G1 E10 F2100 ; Un-retract
SET_PRESSURE_ADVANCE ADVANCE=0.75 ; Set pressure advance
M117 PA 0.75
G1 X179.9591 Y100.58 E1.67085 F3000 ; Print pattern wall
G1 X161.6649 Y118.8742 E1.67085 F3000 ; Print pattern wall
G1 E-10 F2100 ; Retract
G1 Z0.35 F7200 ; Z hop
G0 X162.5285 Y82.2858 F7200 ; Move to start next pattern wall
G1 Z0.25 F7200 ; Z hop return
G1 E10 F2100 ; Un-retract
G1 X180.8226 Y100.58 E1.67085 F3000 ; Print pattern wall
G1 X162.5285 Y118.8742 E1.67085 F3000 ; Print pattern wall
G1 E-10 F2100 ; Retract
G1 Z0.35 F7200 ; Z hop
G0 X163.392 Y82.2858 F7200 ; Move to start next pattern wall
G1 Z0.25 F7200 ; Z hop return
G1 E10 F2100 ; Un-retract
G1 X181.6862 Y100.58 E1.67085 F3000 ; Print pattern wall
G1 X163.392 Y118.8742 E1.67085 F3000 ; Print pattern wall
G1 E-10 F2100 ; Retract
G1 Z0.35 F7200 ; Z hop
G0 X166.067 Y82.2858 F7200 ; Move to next pattern
G1 Z0.25 F7200 ; Z hop return
G1 E10 F2100 ; Un-retract
SET_PRESSURE_ADVANCE ADVANCE=0.8 ; Set pressure advance
M117 PA 0.8
G1 X184.3612 Y100.58 E1.67085 F3000 ; Print pattern wall
G1 X166.067 Y118.8742 E1.67085 F3000 ; Print pattern wall
G1 E-10 F2100 ; Retract
G1 Z0.35 F7200 ; Z hop
G0 X166.9306 Y82.2858 F7200 ; Move to start next pattern wall
G1 Z0.25 F7200 ; Z hop return
G1 E10 F2100 ; Un-retract
G1 X185.2247 Y100.58 E1.67085 F3000 ; Print pattern wall
G1 X166.9306 Y118.8742 E1.67085 F3000 ; Print pattern wall
G1 E-10 F2100 ; Retract
G1 Z0.35 F7200 ; Z hop
G0 X167.7941 Y82.2858 F7200 ; Move to start next pattern wall
G1 Z0.25 F7200 ; Z hop return
G1 E10 F2100 ; Un-retract
G1 X186.0883 Y100.58 E1.67085 F3000 ; Print pattern wall
G1 X167.7941 Y118.8742 E1.67085 F3000 ; Print pattern wall
G1 E-10 F2100 ; Retract
G1 Z0.35 F7200 ; Z hop
G0 X170.4691 Y82.2858 F7200 ; Move to next pattern
G1 Z0.25 F7200 ; Z hop return
G1 E10 F2100 ; Un-retract
SET_PRESSURE_ADVANCE ADVANCE=0.85 ; Set pressure advance
M117 PA 0.85
G1 X188.7633 Y100.58 E1.67085 F3000 ; Print pattern wall
G1 X170.4691 Y118.8742 E1.67085 F3000 ; Print pattern wall
G1 E-10 F2100 ; Retract
G1 Z0.35 F7200 ; Z hop
G0 X171.3326 Y82.2858 F7200 ; Move to start next pattern wall
G1 Z0.25 F7200 ; Z hop return
G1 E10 F2100 ; Un-retract
G1 X189.6268 Y100.58 E1.67085 F3000 ; Print pattern wall
G1 X171.3326 Y118.8742 E1.67085 F3000 ; Print pattern wall
G1 E-10 F2100 ; Retract
G1 Z0.35 F7200 ; Z hop
G0 X172.1962 Y82.2858 F7200 ; Move to start next pattern wall
G1 Z0.25 F7200 ; Z hop return
G1 E10 F2100 ; Un-retract
G1 X190.4903 Y100.58 E1.67085 F3000 ; Print pattern wall
G1 X172.1962 Y118.8742 E1.67085 F3000 ; Print pattern wall
G1 E-10 F2100 ; Retract
G1 Z0.35 F7200 ; Z hop
G0 X174.8712 Y82.2858 F7200 ; Move to next pattern
G1 Z0.25 F7200 ; Z hop return
G1 E10 F2100 ; Un-retract
SET_PRESSURE_ADVANCE ADVANCE=0.9 ; Set pressure advance
M117 PA 0.9
G1 X193.1653 Y100.58 E1.67085 F3000 ; Print pattern wall
G1 X174.8712 Y118.8742 E1.67085 F3000 ; Print pattern wall
G1 E-10 F2100 ; Retract
G1 Z0.35 F7200 ; Z hop
G0 X175.7347 Y82.2858 F7200 ; Move to start next pattern wall
G1 Z0.25 F7200 ; Z hop return
G1 E10 F2100 ; Un-retract
G1 X194.0289 Y100.58 E1.67085 F3000 ; Print pattern wall
G1 X175.7347 Y118.8742 E1.67085 F3000 ; Print pattern wall
G1 E-10 F2100 ; Retract
G1 Z0.35 F7200 ; Z hop
G0 X176.5983 Y82.2858 F7200 ; Move to start next pattern wall
G1 Z0.25 F7200 ; Z hop return
G1 E10 F2100 ; Un-retract
G1 X194.8924 Y100.58 E1.67085 F3000 ; Print pattern wall
G1 X176.5983 Y118.8742 E1.67085 F3000 ; Print pattern wall
G1 E-10 F2100 ; Retract
G1 Z0.35 F7200 ; Z hop
G0 X179.2733 Y82.2858 F7200 ; Move to next pattern
G1 Z0.25 F7200 ; Z hop return
G1 E10 F2100 ; Un-retract
SET_PRESSURE_ADVANCE ADVANCE=0.95 ; Set pressure advance
M117 PA 0.95
G1 X197.5674 Y100.58 E1.67085 F3000 ; Print pattern wall
G1 X179.2733 Y118.8742 E1.67085 F3000 ; Print pattern wall
G1 E-10 F2100 ; Retract
G1 Z0.35 F7200 ; Z hop
G0 X180.1368 Y82.2858 F7200 ; Move to start next pattern wall
G1 Z0.25 F7200 ; Z hop return
G1 E10 F2100 ; Un-retract
G1 X198.431 Y100.58 E1.67085 F3000 ; Print pattern wall
G1 X180.1368 Y118.8742 E1.67085 F3000 ; Print pattern wall
G1 E-10 F2100 ; Retract
G1 Z0.35 F7200 ; Z hop
G0 X181.0004 Y82.2858 F7200 ; Move to start next pattern wall
G1 Z0.25 F7200 ; Z hop return
G1 E10 F2100 ; Un-retract
G1 X199.2945 Y100.58 E1.67085 F3000 ; Print pattern wall
G1 X181.0004 Y118.8742 E1.67085 F3000 ; Print pattern wall
G1 E-10 F2100 ; Retract
G1 Z0.35 F7200 ; Z hop
G0 X183.6754 Y82.2858 F7200 ; Move to next pattern
G1 Z0.25 F7200 ; Z hop return
G1 E10 F2100 ; Un-retract
SET_PRESSURE_ADVANCE ADVANCE=1 ; Set pressure advance
M117 PA 1
G1 X201.9695 Y100.58 E1.67085 F3000 ; Print pattern wall
G1 X183.6754 Y118.8742 E1.67085 F3000 ; Print pattern wall
G1 E-10 F2100 ; Retract
G1 Z0.35 F7200 ; Z hop
G0 X184.5389 Y82.2858 F7200 ; Move to start next pattern wall
G1 Z0.25 F7200 ; Z hop return
G1 E10 F2100 ; Un-retract
G1 X202.8331 Y100.58 E1.67085 F3000 ; Print pattern wall
G1 X184.5389 Y118.8742 E1.67085 F3000 ; Print pattern wall
G1 E-10 F2100 ; Retract
G1 Z0.35 F7200 ; Z hop
G0 X185.4025 Y82.2858 F7200 ; Move to start next pattern wall
G1 Z0.25 F7200 ; Z hop return
G1 E10 F2100 ; Un-retract
G1 X203.6966 Y100.58 E1.67085 F3000 ; Print pattern wall
G1 X185.4025 Y118.8742 E1.67085 F3000 ; Print pattern wall
G1 E-10 F2100 ; Retract
G1 Z0.35 F7200 ; Z hop
G0 X95.6335 Y82.2858 F7200 ; Move back to start position
G1 Z0.25 F7200 ; Z hop return
G1 E10 F2100 ; Un-retract
M106 S255 ; Set fan speed
G0 Z0.55 F7200 ; Move to layer height
SET_PRESSURE_ADVANCE ADVANCE=0 ; Set pressure advance to start value for numbering
M117 PA 0
G1 E-10 F2100 ; Retract
G1 Z0.65 F7200 ; Z hop
G0 X91.578 Y123.4682 F7200 ; Move
G1 Z0.55 F7200 ; Z hop return
G1 E10 F2100 ; Un-retract
G1 X93.578 Y123.4682 E0.15232 F3000 ; Glyph: 0
G1 X95.578 Y123.4682 E0.15232 F3000 ; Glyph: 0
G1 X95.578 Y125.4682 E0.15232 F3000 ; Glyph: 0
G1 X93.578 Y125.4682 E0.15232 F3000 ; Glyph: 0
G1 X91.578 Y125.4682 E0.15232 F3000 ; Glyph: 0
G1 X91.578 Y123.4682 E0.15232 F3000 ; Glyph: 0
G1 E-10 F2100 ; Retract
G1 Z0.65 F7200 ; Z hop
G0 X100.3822 Y123.4682 F7200 ; Move
G1 Z0.55 F7200 ; Z hop return
G1 E10 F2100 ; Un-retract
G1 X102.3822 Y123.4682 E0.15232 F3000 ; Glyph: 0
G1 X104.3822 Y123.4682 E0.15232 F3000 ; Glyph: 0
G1 X104.3822 Y125.4682 E0.15232 F3000 ; Glyph: 0
G1 X102.3822 Y125.4682 E0.15232 F3000 ; Glyph: 0
G1 X100.3822 Y125.4682 E0.15232 F3000 ; Glyph: 0
G1 X100.3822 Y123.4682 E0.15232 F3000 ; Glyph: 0
G1 E-10 F2100 ; Retract
G1 Z0.65 F7200 ; Z hop
G0 X104.3822 Y126.4682 F7200 ; Move
G1 Z0.55 F7200 ; Z hop return
G1 E10 F2100 ; Un-retract
G1 X103.6322 Y126.4682 E0.05712 F3000 ; Glyph: .
G1 E-10 F2100 ; Retract
G1 Z0.65 F7200 ; Z hop
G0 X100.3822 Y127.4682 F7200 ; Move
G1 Z0.55 F7200 ; Z hop return
G1 E10 F2100 ; Un-retract
G1 X102.3822 Y127.4682 E0.15232 F3000 ; Glyph: 1
G1 X104.3822 Y127.4682 E0.15232 F3000 ; Glyph: 1
G1 E-10 F2100 ; Retract
G1 Z0.65 F7200 ; Z hop
G0 X109.1864 Y123.4682 F7200 ; Move
G1 Z0.55 F7200 ; Z hop return
G1 E10 F2100 ; Un-retract
G1 X111.1864 Y123.4682 E0.15232 F3000 ; Glyph: 0
G1 X113.1864 Y123.4682 E0.15232 F3000 ; Glyph: 0
G1 X113.1864 Y125.4682 E0.15232 F3000 ; Glyph: 0
G1 X111.1864 Y125.4682 E0.15232 F3000 ; Glyph: 0
G1 X109.1864 Y125.4682 E0.15232 F3000 ; Glyph: 0
G1 X109.1864 Y123.4682 E0.15232 F3000 ; Glyph: 0
G1 E-10 F2100 ; Retract
G1 Z0.65 F7200 ; Z hop
G0 X113.1864 Y126.4682 F7200 ; Move
G1 Z0.55 F7200 ; Z hop return
G1 E10 F2100 ; Un-retract
G1 X112.4364 Y126.4682 E0.05712 F3000 ; Glyph: .
G1 E-10 F2100 ; Retract
G1 Z0.65 F7200 ; Z hop
G0 X109.1864 Y127.4682 F7200 ; Move
G1 Z0.55 F7200 ; Z hop return
G1 E10 F2100 ; Un-retract
G1 X109.1864 Y129.4682 E0.15232 F3000 ; Glyph: 2
G1 X111.1864 Y129.4682 E0.15232 F3000 ; Glyph: 2
G1 X111.1864 Y127.4682 E0.15232 F3000 ; Glyph: 2
G1 X113.1864 Y127.4682 E0.15232 F3000 ; Glyph: 2
G1 X113.1864 Y129.4682 E0.15232 F3000 ; Glyph: 2
G1 E-10 F2100 ; Retract
G1 Z0.65 F7200 ; Z hop
G0 X117.9906 Y123.4682 F7200 ; Move
G1 Z0.55 F7200 ; Z hop return
G1 E10 F2100 ; Un-retract
G1 X119.9906 Y123.4682 E0.15232 F3000 ; Glyph: 0
G1 X121.9906 Y123.4682 E0.15232 F3000 ; Glyph: 0
G1 X121.9906 Y125.4682 E0.15232 F3000 ; Glyph: 0
G1 X119.9906 Y125.4682 E0.15232 F3000 ; Glyph: 0
G1 X117.9906 Y125.4682 E0.15232 F3000 ; Glyph: 0
G1 X117.9906 Y123.4682 E0.15232 F3000 ; Glyph: 0
G1 E-10 F2100 ; Retract
G1 Z0.65 F7200 ; Z hop
G0 X121.9906 Y126.4682 F7200 ; Move
G1 Z0.55 F7200 ; Z hop return
G1 E10 F2100 ; Un-retract
G1 X121.2406 Y126.4682 E0.05712 F3000 ; Glyph: .
G1 E-10 F2100 ; Retract
G1 Z0.65 F7200 ; Z hop
G0 X117.9906 Y127.4682 F7200 ; Move
G1 Z0.55 F7200 ; Z hop return
G1 E10 F2100 ; Un-retract
G1 X117.9906 Y129.4682 E0.15232 F3000 ; Glyph: 3
G1 X119.9906 Y129.4682 E0.15232 F3000 ; Glyph: 3
G1 X119.9906 Y127.4682 E0.15232 F3000 ; Glyph: 3
G0 X119.9906 Y129.4682 F7200 ; Move
G1 X121.9906 Y129.4682 E0.15232 F3000 ; Glyph: 3
G1 X121.9906 Y127.4682 E0.15232 F3000 ; Glyph: 3
G1 E-10 F2100 ; Retract
G1 Z0.65 F7200 ; Z hop
G0 X126.7948 Y123.4682 F7200 ; Move
G1 Z0.55 F7200 ; Z hop return
G1 E10 F2100 ; Un-retract
G1 X128.7948 Y123.4682 E0.15232 F3000 ; Glyph: 0
G1 X130.7948 Y123.4682 E0.15232 F3000 ; Glyph: 0
G1 X130.7948 Y125.4682 E0.15232 F3000 ; Glyph: 0
G1 X128.7948 Y125.4682 E0.15232 F3000 ; Glyph: 0
G1 X126.7948 Y125.4682 E0.15232 F3000 ; Glyph: 0
G1 X126.7948 Y123.4682 E0.15232 F3000 ; Glyph: 0
G1 E-10 F2100 ; Retract
G1 Z0.65 F7200 ; Z hop
G0 X130.7948 Y126.4682 F7200 ; Move
G1 Z0.55 F7200 ; Z hop return
G1 E10 F2100 ; Un-retract
G1 X130.0448 Y126.4682 E0.05712 F3000 ; Glyph: .
G1 E-10 F2100 ; Retract
G1 Z0.65 F7200 ; Z hop
G0 X126.7948 Y129.4682 F7200 ; Move
G1 Z0.55 F7200 ; Z hop return
G1 E10 F2100 ; Un-retract
G1 X128.7948 Y129.4682 E0.15232 F3000 ; Glyph: 4
G1 X130.7948 Y129.4682 E0.15232 F3000 ; Glyph: 4
G0 X128.7948 Y129.4682 F7200 ; Move
G1 X128.7948 Y127.4682 E0.15232 F3000 ; Glyph: 4
G1 X126.7948 Y127.4682 E0.15232 F3000 ; Glyph: 4
G1 E-10 F2100 ; Retract
G1 Z0.65 F7200 ; Z hop
G0 X135.599 Y123.4682 F7200 ; Move
G1 Z0.55 F7200 ; Z hop return
G1 E10 F2100 ; Un-retract
G1 X137.599 Y123.4682 E0.15232 F3000 ; Glyph: 0
G1 X139.599 Y123.4682 E0.15232 F3000 ; Glyph: 0
G1 X139.599 Y125.4682 E0.15232 F3000 ; Glyph: 0
G1 X137.599 Y125.4682 E0.15232 F3000 ; Glyph: 0
G1 X135.599 Y125.4682 E0.15232 F3000 ; Glyph: 0
G1 X135.599 Y123.4682 E0.15232 F3000 ; Glyph: 0
G1 E-10 F2100 ; Retract
G1 Z0.65 F7200 ; Z hop
G0 X139.599 Y126.4682 F7200 ; Move
G1 Z0.55 F7200 ; Z hop return
G1 E10 F2100 ; Un-retract
G1 X138.849 Y126.4682 E0.05712 F3000 ; Glyph: .
G1 E-10 F2100 ; Retract
G1 Z0.65 F7200 ; Z hop
G0 X135.599 Y129.4682 F7200 ; Move
G1 Z0.55 F7200 ; Z hop return
G1 E10 F2100 ; Un-retract
G1 X135.599 Y127.4682 E0.15232 F3000 ; Glyph: 5
G1 X137.599 Y127.4682 E0.15232 F3000 ; Glyph: 5
G1 X137.599 Y129.4682 E0.15232 F3000 ; Glyph: 5
G1 X139.599 Y129.4682 E0.15232 F3000 ; Glyph: 5
G1 X139.599 Y127.4682 E0.15232 F3000 ; Glyph: 5
G1 E-10 F2100 ; Retract
G1 Z0.65 F7200 ; Z hop
G0 X144.4031 Y123.4682 F7200 ; Move
G1 Z0.55 F7200 ; Z hop return
G1 E10 F2100 ; Un-retract
G1 X146.4031 Y123.4682 E0.15232 F3000 ; Glyph: 0
G1 X148.4031 Y123.4682 E0.15232 F3000 ; Glyph: 0
G1 X148.4031 Y125.4682 E0.15232 F3000 ; Glyph: 0
G1 X146.4031 Y125.4682 E0.15232 F3000 ; Glyph: 0
G1 X144.4031 Y125.4682 E0.15232 F3000 ; Glyph: 0
G1 X144.4031 Y123.4682 E0.15232 F3000 ; Glyph: 0
G1 E-10 F2100 ; Retract
G1 Z0.65 F7200 ; Z hop
G0 X148.4031 Y126.4682 F7200 ; Move
G1 Z0.55 F7200 ; Z hop return
G1 E10 F2100 ; Un-retract
G1 X147.6531 Y126.4682 E0.05712 F3000 ; Glyph: .
G1 E-10 F2100 ; Retract
G1 Z0.65 F7200 ; Z hop
G0 X144.4031 Y129.4682 F7200 ; Move
G1 Z0.55 F7200 ; Z hop return
G1 E10 F2100 ; Un-retract
G1 X144.4031 Y127.4682 E0.15232 F3000 ; Glyph: 6
G1 X146.4031 Y127.4682 E0.15232 F3000 ; Glyph: 6
G1 X148.4031 Y127.4682 E0.15232 F3000 ; Glyph: 6
G1 X148.4031 Y129.4682 E0.15232 F3000 ; Glyph: 6
G1 X146.4031 Y129.4682 E0.15232 F3000 ; Glyph: 6
G1 X146.4031 Y127.4682 E0.15232 F3000 ; Glyph: 6
G1 E-10 F2100 ; Retract
G1 Z0.65 F7200 ; Z hop
G0 X153.2073 Y123.4682 F7200 ; Move
G1 Z0.55 F7200 ; Z hop return
G1 E10 F2100 ; Un-retract
G1 X155.2073 Y123.4682 E0.15232 F3000 ; Glyph: 0
G1 X157.2073 Y123.4682 E0.15232 F3000 ; Glyph: 0
G1 X157.2073 Y125.4682 E0.15232 F3000 ; Glyph: 0
G1 X155.2073 Y125.4682 E0.15232 F3000 ; Glyph: 0
G1 X153.2073 Y125.4682 E0.15232 F3000 ; Glyph: 0
G1 X153.2073 Y123.4682 E0.15232 F3000 ; Glyph: 0
G1 E-10 F2100 ; Retract
G1 Z0.65 F7200 ; Z hop
G0 X157.2073 Y126.4682 F7200 ; Move
G1 Z0.55 F7200 ; Z hop return
G1 E10 F2100 ; Un-retract
G1 X156.4573 Y126.4682 E0.05712 F3000 ; Glyph: .
G1 E-10 F2100 ; Retract
G1 Z0.65 F7200 ; Z hop
G0 X153.2073 Y127.4682 F7200 ; Move
G1 Z0.55 F7200 ; Z hop return
G1 E10 F2100 ; Un-retract
G1 X153.2073 Y129.4682 E0.15232 F3000 ; Glyph: 7
G1 X155.2073 Y129.4682 E0.15232 F3000 ; Glyph: 7
G1 X157.2073 Y129.4682 E0.15232 F3000 ; Glyph: 7
G1 E-10 F2100 ; Retract
G1 Z0.65 F7200 ; Z hop
G0 X162.0115 Y123.4682 F7200 ; Move
G1 Z0.55 F7200 ; Z hop return
G1 E10 F2100 ; Un-retract
G1 X164.0115 Y123.4682 E0.15232 F3000 ; Glyph: 0
G1 X166.0115 Y123.4682 E0.15232 F3000 ; Glyph: 0
G1 X166.0115 Y125.4682 E0.15232 F3000 ; Glyph: 0
G1 X164.0115 Y125.4682 E0.15232 F3000 ; Glyph: 0
G1 X162.0115 Y125.4682 E0.15232 F3000 ; Glyph: 0
G1 X162.0115 Y123.4682 E0.15232 F3000 ; Glyph: 0
G1 E-10 F2100 ; Retract
G1 Z0.65 F7200 ; Z hop
G0 X166.0115 Y126.4682 F7200 ; Move
G1 Z0.55 F7200 ; Z hop return
G1 E10 F2100 ; Un-retract
G1 X165.2615 Y126.4682 E0.05712 F3000 ; Glyph: .
G1 E-10 F2100 ; Retract
G1 Z0.65 F7200 ; Z hop
G0 X162.0115 Y127.4682 F7200 ; Move
G1 Z0.55 F7200 ; Z hop return
G1 E10 F2100 ; Un-retract
G1 X164.0115 Y127.4682 E0.15232 F3000 ; Glyph: 8
G1 X166.0115 Y127.4682 E0.15232 F3000 ; Glyph: 8
G1 X166.0115 Y129.4682 E0.15232 F3000 ; Glyph: 8
G1 X164.0115 Y129.4682 E0.15232 F3000 ; Glyph: 8
G1 X162.0115 Y129.4682 E0.15232 F3000 ; Glyph: 8
G1 X162.0115 Y127.4682 E0.15232 F3000 ; Glyph: 8
G0 X164.0115 Y127.4682 F7200 ; Move
G1 X164.0115 Y129.4682 E0.15232 F3000 ; Glyph: 8
G1 E-10 F2100 ; Retract
G1 Z0.65 F7200 ; Z hop
G0 X170.8157 Y123.4682 F7200 ; Move
G1 Z0.55 F7200 ; Z hop return
G1 E10 F2100 ; Un-retract
G1 X172.8157 Y123.4682 E0.15232 F3000 ; Glyph: 0
G1 X174.8157 Y123.4682 E0.15232 F3000 ; Glyph: 0
G1 X174.8157 Y125.4682 E0.15232 F3000 ; Glyph: 0
G1 X172.8157 Y125.4682 E0.15232 F3000 ; Glyph: 0
G1 X170.8157 Y125.4682 E0.15232 F3000 ; Glyph: 0
G1 X170.8157 Y123.4682 E0.15232 F3000 ; Glyph: 0
G1 E-10 F2100 ; Retract
G1 Z0.65 F7200 ; Z hop
G0 X174.8157 Y126.4682 F7200 ; Move
G1 Z0.55 F7200 ; Z hop return
G1 E10 F2100 ; Un-retract
G1 X174.0657 Y126.4682 E0.05712 F3000 ; Glyph: .
G0 X174.8157 Y127.4682 F7200 ; Move
G1 X174.8157 Y129.4682 E0.15232 F3000 ; Glyph: 9
G1 X172.8157 Y129.4682 E0.15232 F3000 ; Glyph: 9
G1 X170.8157 Y129.4682 E0.15232 F3000 ; Glyph: 9
G1 X170.8157 Y127.4682 E0.15232 F3000 ; Glyph: 9
G1 X172.8157 Y127.4682 E0.15232 F3000 ; Glyph: 9
G1 X172.8157 Y129.4682 E0.15232 F3000 ; Glyph: 9
G1 E-10 F2100 ; Retract
G1 Z0.65 F7200 ; Z hop
G0 X179.6199 Y123.4682 F7200 ; Move
G1 Z0.55 F7200 ; Z hop return
G1 E10 F2100 ; Un-retract
G1 X181.6199 Y123.4682 E0.15232 F3000 ; Glyph: 1
G1 X183.6199 Y123.4682 E0.15232 F3000 ; Glyph: 1
G1 E-10 F2100 ; Retract
G1 Z0.65 F7200 ; Z hop
G0 X92.7145 Y79.3668 F7200 ; Move to pattern start

G1 Z0.55 F7200 ; Z hop return
G1 E10 F2100 ; Un-retract
SET_PRESSURE_ADVANCE ADVANCE=0 ; Set pressure advance
M117 PA 0
G1 X113.9277 Y100.58 E2.28479 F6000 ; Print pattern wall
G1 X92.7145 Y121.7932 E2.28479 F6000 ; Print pattern wall
G1 E-10 F2100 ; Retract
G1 Z0.65 F7200 ; Z hop
G0 X93.578 Y79.3668 F7200 ; Move to start next pattern wall
G1 Z0.55 F7200 ; Z hop return
G1 E10 F2100 ; Un-retract
G1 X114.7912 Y100.58 E2.28479 F6000 ; Print pattern wall
G1 X93.578 Y121.7932 E2.28479 F6000 ; Print pattern wall
G1 E-10 F2100 ; Retract
G1 Z0.65 F7200 ; Z hop
G0 X94.4416 Y79.3668 F7200 ; Move to start next pattern wall
G1 Z0.55 F7200 ; Z hop return
G1 E10 F2100 ; Un-retract
G1 X115.6548 Y100.58 E2.28479 F6000 ; Print pattern wall
G1 X94.4416 Y121.7932 E2.28479 F6000 ; Print pattern wall
G1 E-10 F2100 ; Retract
G1 Z0.65 F7200 ; Z hop
G0 X97.1166 Y79.3668 F7200 ; Move to next pattern
G1 Z0.55 F7200 ; Z hop return
G1 E10 F2100 ; Un-retract
SET_PRESSURE_ADVANCE ADVANCE=0.05 ; Set pressure advance
M117 PA 0.05
G1 X118.3298 Y100.58 E2.28479 F6000 ; Print pattern wall
G1 X97.1166 Y121.7932 E2.28479 F6000 ; Print pattern wall
G1 E-10 F2100 ; Retract
G1 Z0.65 F7200 ; Z hop
G0 X97.9801 Y79.3668 F7200 ; Move to start next pattern wall
G1 Z0.55 F7200 ; Z hop return
G1 E10 F2100 ; Un-retract
G1 X119.1933 Y100.58 E2.28479 F6000 ; Print pattern wall
G1 X97.9801 Y121.7932 E2.28479 F6000 ; Print pattern wall
G1 E-10 F2100 ; Retract
G1 Z0.65 F7200 ; Z hop
G0 X98.8437 Y79.3668 F7200 ; Move to start next pattern wall
G1 Z0.55 F7200 ; Z hop return
G1 E10 F2100 ; Un-retract
G1 X120.0569 Y100.58 E2.28479 F6000 ; Print pattern wall
G1 X98.8437 Y121.7932 E2.28479 F6000 ; Print pattern wall
G1 E-10 F2100 ; Retract
G1 Z0.65 F7200 ; Z hop
G0 X101.5187 Y79.3668 F7200 ; Move to next pattern
G1 Z0.55 F7200 ; Z hop return
G1 E10 F2100 ; Un-retract
SET_PRESSURE_ADVANCE ADVANCE=0.1 ; Set pressure advance
M117 PA 0.1
G1 X122.7319 Y100.58 E2.28479 F6000 ; Print pattern wall
G1 X101.5187 Y121.7932 E2.28479 F6000 ; Print pattern wall
G1 E-10 F2100 ; Retract
G1 Z0.65 F7200 ; Z hop
G0 X102.3822 Y79.3668 F7200 ; Move to start next pattern wall
G1 Z0.55 F7200 ; Z hop return
G1 E10 F2100 ; Un-retract
G1 X123.5954 Y100.58 E2.28479 F6000 ; Print pattern wall
G1 X102.3822 Y121.7932 E2.28479 F6000 ; Print pattern wall
G1 E-10 F2100 ; Retract
G1 Z0.65 F7200 ; Z hop
G0 X103.2458 Y79.3668 F7200 ; Move to start next pattern wall
G1 Z0.55 F7200 ; Z hop return
G1 E10 F2100 ; Un-retract
G1 X124.459 Y100.58 E2.28479 F6000 ; Print pattern wall
G1 X103.2458 Y121.7932 E2.28479 F6000 ; Print pattern wall
G1 E-10 F2100 ; Retract
G1 Z0.65 F7200 ; Z hop
G0 X105.9208 Y79.3668 F7200 ; Move to next pattern
G1 Z0.55 F7200 ; Z hop return
G1 E10 F2100 ; Un-retract
SET_PRESSURE_ADVANCE ADVANCE=0.15 ; Set pressure advance
M117 PA 0.15
G1 X127.134 Y100.58 E2.28479 F6000 ; Print pattern wall
G1 X105.9208 Y121.7932 E2.28479 F6000 ; Print pattern wall
G1 E-10 F2100 ; Retract
G1 Z0.65 F7200 ; Z hop
G0 X106.7843 Y79.3668 F7200 ; Move to start next pattern wall
G1 Z0.55 F7200 ; Z hop return
G1 E10 F2100 ; Un-retract
G1 X127.9975 Y100.58 E2.28479 F6000 ; Print pattern wall
G1 X106.7843 Y121.7932 E2.28479 F6000 ; Print pattern wall
G1 E-10 F2100 ; Retract
G1 Z0.65 F7200 ; Z hop
G0 X107.6478 Y79.3668 F7200 ; Move to start next pattern wall
G1 Z0.55 F7200 ; Z hop return
G1 E10 F2100 ; Un-retract
G1 X128.8611 Y100.58 E2.28479 F6000 ; Print pattern wall
G1 X107.6478 Y121.7932 E2.28479 F6000 ; Print pattern wall
G1 E-10 F2100 ; Retract
G1 Z0.65 F7200 ; Z hop
G0 X110.3228 Y79.3668 F7200 ; Move to next pattern
G1 Z0.55 F7200 ; Z hop return
G1 E10 F2100 ; Un-retract
SET_PRESSURE_ADVANCE ADVANCE=0.2 ; Set pressure advance
M117 PA 0.2
G1 X131.5361 Y100.58 E2.28479 F6000 ; Print pattern wall
G1 X110.3228 Y121.7932 E2.28479 F6000 ; Print pattern wall
G1 E-10 F2100 ; Retract
G1 Z0.65 F7200 ; Z hop
G0 X111.1864 Y79.3668 F7200 ; Move to start next pattern wall
G1 Z0.55 F7200 ; Z hop return
G1 E10 F2100 ; Un-retract
G1 X132.3996 Y100.58 E2.28479 F6000 ; Print pattern wall
G1 X111.1864 Y121.7932 E2.28479 F6000 ; Print pattern wall
G1 E-10 F2100 ; Retract
G1 Z0.65 F7200 ; Z hop
G0 X112.0499 Y79.3668 F7200 ; Move to start next pattern wall
G1 Z0.55 F7200 ; Z hop return
G1 E10 F2100 ; Un-retract
G1 X133.2631 Y100.58 E2.28479 F6000 ; Print pattern wall
G1 X112.0499 Y121.7932 E2.28479 F6000 ; Print pattern wall
G1 E-10 F2100 ; Retract
G1 Z0.65 F7200 ; Z hop
G0 X114.7249 Y79.3668 F7200 ; Move to next pattern
G1 Z0.55 F7200 ; Z hop return
G1 E10 F2100 ; Un-retract
SET_PRESSURE_ADVANCE ADVANCE=0.25 ; Set pressure advance
M117 PA 0.25
G1 X135.9381 Y100.58 E2.28479 F6000 ; Print pattern wall
G1 X114.7249 Y121.7932 E2.28479 F6000 ; Print pattern wall
G1 E-10 F2100 ; Retract
G1 Z0.65 F7200 ; Z hop
G0 X115.5885 Y79.3668 F7200 ; Move to start next pattern wall
G1 Z0.55 F7200 ; Z hop return
G1 E10 F2100 ; Un-retract
G1 X136.8017 Y100.58 E2.28479 F6000 ; Print pattern wall
G1 X115.5885 Y121.7932 E2.28479 F6000 ; Print pattern wall
G1 E-10 F2100 ; Retract
G1 Z0.65 F7200 ; Z hop
G0 X116.452 Y79.3668 F7200 ; Move to start next pattern wall
G1 Z0.55 F7200 ; Z hop return
G1 E10 F2100 ; Un-retract
G1 X137.6652 Y100.58 E2.28479 F6000 ; Print pattern wall
G1 X116.452 Y121.7932 E2.28479 F6000 ; Print pattern wall
G1 E-10 F2100 ; Retract
G1 Z0.65 F7200 ; Z hop
G0 X119.127 Y79.3668 F7200 ; Move to next pattern
G1 Z0.55 F7200 ; Z hop return
G1 E10 F2100 ; Un-retract
SET_PRESSURE_ADVANCE ADVANCE=0.3 ; Set pressure advance
M117 PA 0.3
G1 X140.3402 Y100.58 E2.28479 F6000 ; Print pattern wall
G1 X119.127 Y121.7932 E2.28479 F6000 ; Print pattern wall
G1 E-10 F2100 ; Retract
G1 Z0.65 F7200 ; Z hop
G0 X119.9906 Y79.3668 F7200 ; Move to start next pattern wall
G1 Z0.55 F7200 ; Z hop return
G1 E10 F2100 ; Un-retract
G1 X141.2038 Y100.58 E2.28479 F6000 ; Print pattern wall
G1 X119.9906 Y121.7932 E2.28479 F6000 ; Print pattern wall
G1 E-10 F2100 ; Retract
G1 Z0.65 F7200 ; Z hop
G0 X120.8541 Y79.3668 F7200 ; Move to start next pattern wall
G1 Z0.55 F7200 ; Z hop return
G1 E10 F2100 ; Un-retract
G1 X142.0673 Y100.58 E2.28479 F6000 ; Print pattern wall
G1 X120.8541 Y121.7932 E2.28479 F6000 ; Print pattern wall
G1 E-10 F2100 ; Retract
G1 Z0.65 F7200 ; Z hop
G0 X123.5291 Y79.3668 F7200 ; Move to next pattern
G1 Z0.55 F7200 ; Z hop return
G1 E10 F2100 ; Un-retract
SET_PRESSURE_ADVANCE ADVANCE=0.35 ; Set pressure advance
M117 PA 0.35
G1 X144.7423 Y100.58 E2.28479 F6000 ; Print pattern wall
G1 X123.5291 Y121.7932 E2.28479 F6000 ; Print pattern wall
G1 E-10 F2100 ; Retract
G1 Z0.65 F7200 ; Z hop
G0 X124.3927 Y79.3668 F7200 ; Move to start next pattern wall
G1 Z0.55 F7200 ; Z hop return
G1 E10 F2100 ; Un-retract
G1 X145.6059 Y100.58 E2.28479 F6000 ; Print pattern wall
G1 X124.3927 Y121.7932 E2.28479 F6000 ; Print pattern wall
G1 E-10 F2100 ; Retract
G1 Z0.65 F7200 ; Z hop
G0 X125.2562 Y79.3668 F7200 ; Move to start next pattern wall
G1 Z0.55 F7200 ; Z hop return
G1 E10 F2100 ; Un-retract
G1 X146.4694 Y100.58 E2.28479 F6000 ; Print pattern wall
G1 X125.2562 Y121.7932 E2.28479 F6000 ; Print pattern wall
G1 E-10 F2100 ; Retract
G1 Z0.65 F7200 ; Z hop
G0 X127.9312 Y79.3668 F7200 ; Move to next pattern
G1 Z0.55 F7200 ; Z hop return
G1 E10 F2100 ; Un-retract
SET_PRESSURE_ADVANCE ADVANCE=0.4 ; Set pressure advance
M117 PA 0.4
G1 X149.1444 Y100.58 E2.28479 F6000 ; Print pattern wall
G1 X127.9312 Y121.7932 E2.28479 F6000 ; Print pattern wall
G1 E-10 F2100 ; Retract
G1 Z0.65 F7200 ; Z hop
G0 X128.7948 Y79.3668 F7200 ; Move to start next pattern wall
G1 Z0.55 F7200 ; Z hop return
G1 E10 F2100 ; Un-retract
G1 X150.008 Y100.58 E2.28479 F6000 ; Print pattern wall
G1 X128.7948 Y121.7932 E2.28479 F6000 ; Print pattern wall
G1 E-10 F2100 ; Retract
G1 Z0.65 F7200 ; Z hop
G0 X129.6583 Y79.3668 F7200 ; Move to start next pattern wall
G1 Z0.55 F7200 ; Z hop return
G1 E10 F2100 ; Un-retract
G1 X150.8715 Y100.58 E2.28479 F6000 ; Print pattern wall
G1 X129.6583 Y121.7932 E2.28479 F6000 ; Print pattern wall
G1 E-10 F2100 ; Retract
G1 Z0.65 F7200 ; Z hop
G0 X132.3333 Y79.3668 F7200 ; Move to next pattern
G1 Z0.55 F7200 ; Z hop return
G1 E10 F2100 ; Un-retract
SET_PRESSURE_ADVANCE ADVANCE=0.45 ; Set pressure advance
M117 PA 0.45
G1 X153.5465 Y100.58 E2.28479 F6000 ; Print pattern wall
G1 X132.3333 Y121.7932 E2.28479 F6000 ; Print pattern wall
G1 E-10 F2100 ; Retract
G1 Z0.65 F7200 ; Z hop
G0 X133.1969 Y79.3668 F7200 ; Move to start next pattern wall
G1 Z0.55 F7200 ; Z hop return
G1 E10 F2100 ; Un-retract
G1 X154.4101 Y100.58 E2.28479 F6000 ; Print pattern wall
G1 X133.1969 Y121.7932 E2.28479 F6000 ; Print pattern wall
G1 E-10 F2100 ; Retract
G1 Z0.65 F7200 ; Z hop
G0 X134.0604 Y79.3668 F7200 ; Move to start next pattern wall
G1 Z0.55 F7200 ; Z hop return
G1 E10 F2100 ; Un-retract
G1 X155.2736 Y100.58 E2.28479 F6000 ; Print pattern wall
G1 X134.0604 Y121.7932 E2.28479 F6000 ; Print pattern wall
G1 E-10 F2100 ; Retract
G1 Z0.65 F7200 ; Z hop
G0 X136.7354 Y79.3668 F7200 ; Move to next pattern
G1 Z0.55 F7200 ; Z hop return
G1 E10 F2100 ; Un-retract
SET_PRESSURE_ADVANCE ADVANCE=0.5 ; Set pressure advance
M117 PA 0.5
G1 X157.9486 Y100.58 E2.28479 F6000 ; Print pattern wall
G1 X136.7354 Y121.7932 E2.28479 F6000 ; Print pattern wall
G1 E-10 F2100 ; Retract
G1 Z0.65 F7200 ; Z hop
G0 X137.599 Y79.3668 F7200 ; Move to start next pattern wall
G1 Z0.55 F7200 ; Z hop return
G1 E10 F2100 ; Un-retract
G1 X158.8122 Y100.58 E2.28479 F6000 ; Print pattern wall
G1 X137.599 Y121.7932 E2.28479 F6000 ; Print pattern wall
G1 E-10 F2100 ; Retract
G1 Z0.65 F7200 ; Z hop
G0 X138.4625 Y79.3668 F7200 ; Move to start next pattern wall
G1 Z0.55 F7200 ; Z hop return
G1 E10 F2100 ; Un-retract
G1 X159.6757 Y100.58 E2.28479 F6000 ; Print pattern wall
G1 X138.4625 Y121.7932 E2.28479 F6000 ; Print pattern wall
G1 E-10 F2100 ; Retract
G1 Z0.65 F7200 ; Z hop
G0 X141.1375 Y79.3668 F7200 ; Move to next pattern
G1 Z0.55 F7200 ; Z hop return
G1 E10 F2100 ; Un-retract
SET_PRESSURE_ADVANCE ADVANCE=0.55 ; Set pressure advance
M117 PA 0.55
G1 X162.3507 Y100.58 E2.28479 F6000 ; Print pattern wall
G1 X141.1375 Y121.7932 E2.28479 F6000 ; Print pattern wall
G1 E-10 F2100 ; Retract
G1 Z0.65 F7200 ; Z hop
G0 X142.001 Y79.3668 F7200 ; Move to start next pattern wall
G1 Z0.55 F7200 ; Z hop return
G1 E10 F2100 ; Un-retract
G1 X163.2142 Y100.58 E2.28479 F6000 ; Print pattern wall
G1 X142.001 Y121.7932 E2.28479 F6000 ; Print pattern wall
G1 E-10 F2100 ; Retract
G1 Z0.65 F7200 ; Z hop
G0 X142.8646 Y79.3668 F7200 ; Move to start next pattern wall
G1 Z0.55 F7200 ; Z hop return
G1 E10 F2100 ; Un-retract
G1 X164.0778 Y100.58 E2.28479 F6000 ; Print pattern wall
G1 X142.8646 Y121.7932 E2.28479 F6000 ; Print pattern wall
G1 E-10 F2100 ; Retract
G1 Z0.65 F7200 ; Z hop
G0 X145.5396 Y79.3668 F7200 ; Move to next pattern
G1 Z0.55 F7200 ; Z hop return
G1 E10 F2100 ; Un-retract
SET_PRESSURE_ADVANCE ADVANCE=0.6 ; Set pressure advance
M117 PA 0.6
G1 X166.7528 Y100.58 E2.28479 F6000 ; Print pattern wall
G1 X145.5396 Y121.7932 E2.28479 F6000 ; Print pattern wall
G1 E-10 F2100 ; Retract
G1 Z0.65 F7200 ; Z hop
G0 X146.4031 Y79.3668 F7200 ; Move to start next pattern wall
G1 Z0.55 F7200 ; Z hop return
G1 E10 F2100 ; Un-retract
G1 X167.6163 Y100.58 E2.28479 F6000 ; Print pattern wall
G1 X146.4031 Y121.7932 E2.28479 F6000 ; Print pattern wall
G1 E-10 F2100 ; Retract
G1 Z0.65 F7200 ; Z hop
G0 X147.2667 Y79.3668 F7200 ; Move to start next pattern wall
G1 Z0.55 F7200 ; Z hop return
G1 E10 F2100 ; Un-retract
G1 X168.4799 Y100.58 E2.28479 F6000 ; Print pattern wall
G1 X147.2667 Y121.7932 E2.28479 F6000 ; Print pattern wall
G1 E-10 F2100 ; Retract
G1 Z0.65 F7200 ; Z hop
G0 X149.9417 Y79.3668 F7200 ; Move to next pattern
G1 Z0.55 F7200 ; Z hop return
G1 E10 F2100 ; Un-retract
SET_PRESSURE_ADVANCE ADVANCE=0.65 ; Set pressure advance
M117 PA 0.65
G1 X171.1549 Y100.58 E2.28479 F6000 ; Print pattern wall
G1 X149.9417 Y121.7932 E2.28479 F6000 ; Print pattern wall
G1 E-10 F2100 ; Retract
G1 Z0.65 F7200 ; Z hop
G0 X150.8052 Y79.3668 F7200 ; Move to start next pattern wall
G1 Z0.55 F7200 ; Z hop return
G1 E10 F2100 ; Un-retract
G1 X172.0184 Y100.58 E2.28479 F6000 ; Print pattern wall
G1 X150.8052 Y121.7932 E2.28479 F6000 ; Print pattern wall
G1 E-10 F2100 ; Retract
G1 Z0.65 F7200 ; Z hop
G0 X151.6688 Y79.3668 F7200 ; Move to start next pattern wall
G1 Z0.55 F7200 ; Z hop return
G1 E10 F2100 ; Un-retract
G1 X172.882 Y100.58 E2.28479 F6000 ; Print pattern wall
G1 X151.6688 Y121.7932 E2.28479 F6000 ; Print pattern wall
G1 E-10 F2100 ; Retract
G1 Z0.65 F7200 ; Z hop
G0 X154.3438 Y79.3668 F7200 ; Move to next pattern
G1 Z0.55 F7200 ; Z hop return
G1 E10 F2100 ; Un-retract
SET_PRESSURE_ADVANCE ADVANCE=0.7 ; Set pressure advance
M117 PA 0.7
G1 X175.557 Y100.58 E2.28479 F6000 ; Print pattern wall
G1 X154.3438 Y121.7932 E2.28479 F6000 ; Print pattern wall
G1 E-10 F2100 ; Retract
G1 Z0.65 F7200 ; Z hop
G0 X155.2073 Y79.3668 F7200 ; Move to start next pattern wall
G1 Z0.55 F7200 ; Z hop return
G1 E10 F2100 ; Un-retract
G1 X176.4205 Y100.58 E2.28479 F6000 ; Print pattern wall
G1 X155.2073 Y121.7932 E2.28479 F6000 ; Print pattern wall
G1 E-10 F2100 ; Retract
G1 Z0.65 F7200 ; Z hop
G0 X156.0709 Y79.3668 F7200 ; Move to start next pattern wall
G1 Z0.55 F7200 ; Z hop return
G1 E10 F2100 ; Un-retract
G1 X177.2841 Y100.58 E2.28479 F6000 ; Print pattern wall
G1 X156.0709 Y121.7932 E2.28479 F6000 ; Print pattern wall
G1 E-10 F2100 ; Retract
G1 Z0.65 F7200 ; Z hop
G0 X158.7459 Y79.3668 F7200 ; Move to next pattern
G1 Z0.55 F7200 ; Z hop return
G1 E10 F2100 ; Un-retract
SET_PRESSURE_ADVANCE ADVANCE=0.75 ; Set pressure advance
M117 PA 0.75
G1 X179.9591 Y100.58 E2.28479 F6000 ; Print pattern wall
G1 X158.7459 Y121.7932 E2.28479 F6000 ; Print pattern wall
G1 E-10 F2100 ; Retract
G1 Z0.65 F7200 ; Z hop
G0 X159.6094 Y79.3668 F7200 ; Move to start next pattern wall
G1 Z0.55 F7200 ; Z hop return
G1 E10 F2100 ; Un-retract
G1 X180.8226 Y100.58 E2.28479 F6000 ; Print pattern wall
G1 X159.6094 Y121.7932 E2.28479 F6000 ; Print pattern wall
G1 E-10 F2100 ; Retract
G1 Z0.65 F7200 ; Z hop
G0 X160.473 Y79.3668 F7200 ; Move to start next pattern wall
G1 Z0.55 F7200 ; Z hop return
G1 E10 F2100 ; Un-retract
G1 X181.6862 Y100.58 E2.28479 F6000 ; Print pattern wall
G1 X160.473 Y121.7932 E2.28479 F6000 ; Print pattern wall
G1 E-10 F2100 ; Retract
G1 Z0.65 F7200 ; Z hop
G0 X163.148 Y79.3668 F7200 ; Move to next pattern
G1 Z0.55 F7200 ; Z hop return
G1 E10 F2100 ; Un-retract
SET_PRESSURE_ADVANCE ADVANCE=0.8 ; Set pressure advance
M117 PA 0.8
G1 X184.3612 Y100.58 E2.28479 F6000 ; Print pattern wall
G1 X163.148 Y121.7932 E2.28479 F6000 ; Print pattern wall
G1 E-10 F2100 ; Retract
G1 Z0.65 F7200 ; Z hop
G0 X164.0115 Y79.3668 F7200 ; Move to start next pattern wall
G1 Z0.55 F7200 ; Z hop return
G1 E10 F2100 ; Un-retract
G1 X185.2247 Y100.58 E2.28479 F6000 ; Print pattern wall
G1 X164.0115 Y121.7932 E2.28479 F6000 ; Print pattern wall
G1 E-10 F2100 ; Retract
G1 Z0.65 F7200 ; Z hop
G0 X164.8751 Y79.3668 F7200 ; Move to start next pattern wall
G1 Z0.55 F7200 ; Z hop return
G1 E10 F2100 ; Un-retract
G1 X186.0883 Y100.58 E2.28479 F6000 ; Print pattern wall
G1 X164.8751 Y121.7932 E2.28479 F6000 ; Print pattern wall
G1 E-10 F2100 ; Retract
G1 Z0.65 F7200 ; Z hop
G0 X167.5501 Y79.3668 F7200 ; Move to next pattern
G1 Z0.55 F7200 ; Z hop return
G1 E10 F2100 ; Un-retract
SET_PRESSURE_ADVANCE ADVANCE=0.85 ; Set pressure advance
M117 PA 0.85
G1 X188.7633 Y100.58 E2.28479 F6000 ; Print pattern wall
G1 X167.5501 Y121.7932 E2.28479 F6000 ; Print pattern wall
G1 E-10 F2100 ; Retract
G1 Z0.65 F7200 ; Z hop
G0 X168.4136 Y79.3668 F7200 ; Move to start next pattern wall
G1 Z0.55 F7200 ; Z hop return
G1 E10 F2100 ; Un-retract
G1 X189.6268 Y100.58 E2.28479 F6000 ; Print pattern wall
G1 X168.4136 Y121.7932 E2.28479 F6000 ; Print pattern wall
G1 E-10 F2100 ; Retract
G1 Z0.65 F7200 ; Z hop
G0 X169.2771 Y79.3668 F7200 ; Move to start next pattern wall
G1 Z0.55 F7200 ; Z hop return
G1 E10 F2100 ; Un-retract
G1 X190.4903 Y100.58 E2.28479 F6000 ; Print pattern wall
G1 X169.2771 Y121.7932 E2.28479 F6000 ; Print pattern wall
G1 E-10 F2100 ; Retract
G1 Z0.65 F7200 ; Z hop
G0 X171.9521 Y79.3668 F7200 ; Move to next pattern
G1 Z0.55 F7200 ; Z hop return
G1 E10 F2100 ; Un-retract
SET_PRESSURE_ADVANCE ADVANCE=0.9 ; Set pressure advance
M117 PA 0.9
G1 X193.1653 Y100.58 E2.28479 F6000 ; Print pattern wall
G1 X171.9521 Y121.7932 E2.28479 F6000 ; Print pattern wall
G1 E-10 F2100 ; Retract
G1 Z0.65 F7200 ; Z hop
G0 X172.8157 Y79.3668 F7200 ; Move to start next pattern wall
G1 Z0.55 F7200 ; Z hop return
G1 E10 F2100 ; Un-retract
G1 X194.0289 Y100.58 E2.28479 F6000 ; Print pattern wall
G1 X172.8157 Y121.7932 E2.28479 F6000 ; Print pattern wall
G1 E-10 F2100 ; Retract
G1 Z0.65 F7200 ; Z hop
G0 X173.6792 Y79.3668 F7200 ; Move to start next pattern wall
G1 Z0.55 F7200 ; Z hop return
G1 E10 F2100 ; Un-retract
G1 X194.8924 Y100.58 E2.28479 F6000 ; Print pattern wall
G1 X173.6792 Y121.7932 E2.28479 F6000 ; Print pattern wall
G1 E-10 F2100 ; Retract
G1 Z0.65 F7200 ; Z hop
G0 X176.3542 Y79.3668 F7200 ; Move to next pattern
G1 Z0.55 F7200 ; Z hop return
G1 E10 F2100 ; Un-retract
SET_PRESSURE_ADVANCE ADVANCE=0.95 ; Set pressure advance
M117 PA 0.95
G1 X197.5674 Y100.58 E2.28479 F6000 ; Print pattern wall
G1 X176.3542 Y121.7932 E2.28479 F6000 ; Print pattern wall
G1 E-10 F2100 ; Retract
G1 Z0.65 F7200 ; Z hop
G0 X177.2178 Y79.3668 F7200 ; Move to start next pattern wall
G1 Z0.55 F7200 ; Z hop return
G1 E10 F2100 ; Un-retract
G1 X198.431 Y100.58 E2.28479 F6000 ; Print pattern wall
G1 X177.2178 Y121.7932 E2.28479 F6000 ; Print pattern wall
G1 E-10 F2100 ; Retract
G1 Z0.65 F7200 ; Z hop
G0 X178.0813 Y79.3668 F7200 ; Move to start next pattern wall
G1 Z0.55 F7200 ; Z hop return
G1 E10 F2100 ; Un-retract
G1 X199.2945 Y100.58 E2.28479 F6000 ; Print pattern wall
G1 X178.0813 Y121.7932 E2.28479 F6000 ; Print pattern wall
G1 E-10 F2100 ; Retract
G1 Z0.65 F7200 ; Z hop
G0 X180.7563 Y79.3668 F7200 ; Move to next pattern
G1 Z0.55 F7200 ; Z hop return
G1 E10 F2100 ; Un-retract
SET_PRESSURE_ADVANCE ADVANCE=1 ; Set pressure advance
M117 PA 1
G1 X201.9695 Y100.58 E2.28479 F6000 ; Print pattern wall
G1 X180.7563 Y121.7932 E2.28479 F6000 ; Print pattern wall
G1 E-10 F2100 ; Retract
G1 Z0.65 F7200 ; Z hop
G0 X181.6199 Y79.3668 F7200 ; Move to start next pattern wall
G1 Z0.55 F7200 ; Z hop return
G1 E10 F2100 ; Un-retract
G1 X202.8331 Y100.58 E2.28479 F6000 ; Print pattern wall
G1 X181.6199 Y121.7932 E2.28479 F6000 ; Print pattern wall
G1 E-10 F2100 ; Retract
G1 Z0.65 F7200 ; Z hop
G0 X182.4834 Y79.3668 F7200 ; Move to start next pattern wall
G1 Z0.55 F7200 ; Z hop return
G1 E10 F2100 ; Un-retract
G1 X203.6966 Y100.58 E2.28479 F6000 ; Print pattern wall
G1 X182.4834 Y121.7932 E2.28479 F6000 ; Print pattern wall
G1 E-10 F2100 ; Retract
G1 Z0.65 F7200 ; Z hop
G0 X92.7145 Y79.3668 F7200 ; Move back to start position
G1 Z0.55 F7200 ; Z hop return
G1 E10 F2100 ; Un-retract
G0 Z0.85 F7200 ; Move to layer height
SET_PRESSURE_ADVANCE ADVANCE=0 ; Set pressure advance
M117 PA 0
G1 X113.9277 Y100.58 E2.28479 F6000 ; Print pattern wall
G1 X92.7145 Y121.7932 E2.28479 F6000 ; Print pattern wall
G1 E-10 F2100 ; Retract
G1 Z0.95 F7200 ; Z hop
G0 X93.578 Y79.3668 F7200 ; Move to start next pattern wall
G1 Z0.85 F7200 ; Z hop return
G1 E10 F2100 ; Un-retract
G1 X114.7912 Y100.58 E2.28479 F6000 ; Print pattern wall
G1 X93.578 Y121.7932 E2.28479 F6000 ; Print pattern wall
G1 E-10 F2100 ; Retract
G1 Z0.95 F7200 ; Z hop
G0 X94.4416 Y79.3668 F7200 ; Move to start next pattern wall
G1 Z0.85 F7200 ; Z hop return
G1 E10 F2100 ; Un-retract
G1 X115.6548 Y100.58 E2.28479 F6000 ; Print pattern wall
G1 X94.4416 Y121.7932 E2.28479 F6000 ; Print pattern wall
G1 E-10 F2100 ; Retract
G1 Z0.95 F7200 ; Z hop
G0 X97.1166 Y79.3668 F7200 ; Move to next pattern
G1 Z0.85 F7200 ; Z hop return
G1 E10 F2100 ; Un-retract
SET_PRESSURE_ADVANCE ADVANCE=0.05 ; Set pressure advance
M117 PA 0.05
G1 X118.3298 Y100.58 E2.28479 F6000 ; Print pattern wall
G1 X97.1166 Y121.7932 E2.28479 F6000 ; Print pattern wall
G1 E-10 F2100 ; Retract
G1 Z0.95 F7200 ; Z hop
G0 X97.9801 Y79.3668 F7200 ; Move to start next pattern wall
G1 Z0.85 F7200 ; Z hop return
G1 E10 F2100 ; Un-retract
G1 X119.1933 Y100.58 E2.28479 F6000 ; Print pattern wall
G1 X97.9801 Y121.7932 E2.28479 F6000 ; Print pattern wall
G1 E-10 F2100 ; Retract
G1 Z0.95 F7200 ; Z hop
G0 X98.8437 Y79.3668 F7200 ; Move to start next pattern wall
G1 Z0.85 F7200 ; Z hop return
G1 E10 F2100 ; Un-retract
G1 X120.0569 Y100.58 E2.28479 F6000 ; Print pattern wall
G1 X98.8437 Y121.7932 E2.28479 F6000 ; Print pattern wall
G1 E-10 F2100 ; Retract
G1 Z0.95 F7200 ; Z hop
G0 X101.5187 Y79.3668 F7200 ; Move to next pattern
G1 Z0.85 F7200 ; Z hop return
G1 E10 F2100 ; Un-retract
SET_PRESSURE_ADVANCE ADVANCE=0.1 ; Set pressure advance
M117 PA 0.1
G1 X122.7319 Y100.58 E2.28479 F6000 ; Print pattern wall
G1 X101.5187 Y121.7932 E2.28479 F6000 ; Print pattern wall
G1 E-10 F2100 ; Retract
G1 Z0.95 F7200 ; Z hop
G0 X102.3822 Y79.3668 F7200 ; Move to start next pattern wall
G1 Z0.85 F7200 ; Z hop return
G1 E10 F2100 ; Un-retract
G1 X123.5954 Y100.58 E2.28479 F6000 ; Print pattern wall
G1 X102.3822 Y121.7932 E2.28479 F6000 ; Print pattern wall
G1 E-10 F2100 ; Retract
G1 Z0.95 F7200 ; Z hop
G0 X103.2458 Y79.3668 F7200 ; Move to start next pattern wall
G1 Z0.85 F7200 ; Z hop return
G1 E10 F2100 ; Un-retract
G1 X124.459 Y100.58 E2.28479 F6000 ; Print pattern wall
G1 X103.2458 Y121.7932 E2.28479 F6000 ; Print pattern wall
G1 E-10 F2100 ; Retract
G1 Z0.95 F7200 ; Z hop
G0 X105.9208 Y79.3668 F7200 ; Move to next pattern
G1 Z0.85 F7200 ; Z hop return
G1 E10 F2100 ; Un-retract
SET_PRESSURE_ADVANCE ADVANCE=0.15 ; Set pressure advance
M117 PA 0.15
G1 X127.134 Y100.58 E2.28479 F6000 ; Print pattern wall
G1 X105.9208 Y121.7932 E2.28479 F6000 ; Print pattern wall
G1 E-10 F2100 ; Retract
G1 Z0.95 F7200 ; Z hop
G0 X106.7843 Y79.3668 F7200 ; Move to start next pattern wall
G1 Z0.85 F7200 ; Z hop return
G1 E10 F2100 ; Un-retract
G1 X127.9975 Y100.58 E2.28479 F6000 ; Print pattern wall
G1 X106.7843 Y121.7932 E2.28479 F6000 ; Print pattern wall
G1 E-10 F2100 ; Retract
G1 Z0.95 F7200 ; Z hop
G0 X107.6478 Y79.3668 F7200 ; Move to start next pattern wall
G1 Z0.85 F7200 ; Z hop return
G1 E10 F2100 ; Un-retract
G1 X128.8611 Y100.58 E2.28479 F6000 ; Print pattern wall
G1 X107.6478 Y121.7932 E2.28479 F6000 ; Print pattern wall
G1 E-10 F2100 ; Retract
G1 Z0.95 F7200 ; Z hop
G0 X110.3228 Y79.3668 F7200 ; Move to next pattern
G1 Z0.85 F7200 ; Z hop return
G1 E10 F2100 ; Un-retract
SET_PRESSURE_ADVANCE ADVANCE=0.2 ; Set pressure advance
M117 PA 0.2
G1 X131.5361 Y100.58 E2.28479 F6000 ; Print pattern wall
G1 X110.3228 Y121.7932 E2.28479 F6000 ; Print pattern wall
G1 E-10 F2100 ; Retract
G1 Z0.95 F7200 ; Z hop
G0 X111.1864 Y79.3668 F7200 ; Move to start next pattern wall
G1 Z0.85 F7200 ; Z hop return
G1 E10 F2100 ; Un-retract
G1 X132.3996 Y100.58 E2.28479 F6000 ; Print pattern wall
G1 X111.1864 Y121.7932 E2.28479 F6000 ; Print pattern wall
G1 E-10 F2100 ; Retract
G1 Z0.95 F7200 ; Z hop
G0 X112.0499 Y79.3668 F7200 ; Move to start next pattern wall
G1 Z0.85 F7200 ; Z hop return
G1 E10 F2100 ; Un-retract
G1 X133.2631 Y100.58 E2.28479 F6000 ; Print pattern wall
G1 X112.0499 Y121.7932 E2.28479 F6000 ; Print pattern wall
G1 E-10 F2100 ; Retract
G1 Z0.95 F7200 ; Z hop
G0 X114.7249 Y79.3668 F7200 ; Move to next pattern
G1 Z0.85 F7200 ; Z hop return
G1 E10 F2100 ; Un-retract
SET_PRESSURE_ADVANCE ADVANCE=0.25 ; Set pressure advance
M117 PA 0.25
G1 X135.9381 Y100.58 E2.28479 F6000 ; Print pattern wall
G1 X114.7249 Y121.7932 E2.28479 F6000 ; Print pattern wall
G1 E-10 F2100 ; Retract
G1 Z0.95 F7200 ; Z hop
G0 X115.5885 Y79.3668 F7200 ; Move to start next pattern wall
G1 Z0.85 F7200 ; Z hop return
G1 E10 F2100 ; Un-retract
G1 X136.8017 Y100.58 E2.28479 F6000 ; Print pattern wall
G1 X115.5885 Y121.7932 E2.28479 F6000 ; Print pattern wall
G1 E-10 F2100 ; Retract
G1 Z0.95 F7200 ; Z hop
G0 X116.452 Y79.3668 F7200 ; Move to start next pattern wall
G1 Z0.85 F7200 ; Z hop return
G1 E10 F2100 ; Un-retract
G1 X137.6652 Y100.58 E2.28479 F6000 ; Print pattern wall
G1 X116.452 Y121.7932 E2.28479 F6000 ; Print pattern wall
G1 E-10 F2100 ; Retract
G1 Z0.95 F7200 ; Z hop
G0 X119.127 Y79.3668 F7200 ; Move to next pattern
G1 Z0.85 F7200 ; Z hop return
G1 E10 F2100 ; Un-retract
SET_PRESSURE_ADVANCE ADVANCE=0.3 ; Set pressure advance
M117 PA 0.3
G1 X140.3402 Y100.58 E2.28479 F6000 ; Print pattern wall
G1 X119.127 Y121.7932 E2.28479 F6000 ; Print pattern wall
G1 E-10 F2100 ; Retract
G1 Z0.95 F7200 ; Z hop
G0 X119.9906 Y79.3668 F7200 ; Move to start next pattern wall
G1 Z0.85 F7200 ; Z hop return
G1 E10 F2100 ; Un-retract
G1 X141.2038 Y100.58 E2.28479 F6000 ; Print pattern wall
G1 X119.9906 Y121.7932 E2.28479 F6000 ; Print pattern wall
G1 E-10 F2100 ; Retract
G1 Z0.95 F7200 ; Z hop
G0 X120.8541 Y79.3668 F7200 ; Move to start next pattern wall
G1 Z0.85 F7200 ; Z hop return
G1 E10 F2100 ; Un-retract
G1 X142.0673 Y100.58 E2.28479 F6000 ; Print pattern wall
G1 X120.8541 Y121.7932 E2.28479 F6000 ; Print pattern wall
G1 E-10 F2100 ; Retract
G1 Z0.95 F7200 ; Z hop
G0 X123.5291 Y79.3668 F7200 ; Move to next pattern
G1 Z0.85 F7200 ; Z hop return
G1 E10 F2100 ; Un-retract
SET_PRESSURE_ADVANCE ADVANCE=0.35 ; Set pressure advance
M117 PA 0.35
G1 X144.7423 Y100.58 E2.28479 F6000 ; Print pattern wall
G1 X123.5291 Y121.7932 E2.28479 F6000 ; Print pattern wall
G1 E-10 F2100 ; Retract
G1 Z0.95 F7200 ; Z hop
G0 X124.3927 Y79.3668 F7200 ; Move to start next pattern wall
G1 Z0.85 F7200 ; Z hop return
G1 E10 F2100 ; Un-retract
G1 X145.6059 Y100.58 E2.28479 F6000 ; Print pattern wall
G1 X124.3927 Y121.7932 E2.28479 F6000 ; Print pattern wall
G1 E-10 F2100 ; Retract
G1 Z0.95 F7200 ; Z hop
G0 X125.2562 Y79.3668 F7200 ; Move to start next pattern wall
G1 Z0.85 F7200 ; Z hop return
G1 E10 F2100 ; Un-retract
G1 X146.4694 Y100.58 E2.28479 F6000 ; Print pattern wall
G1 X125.2562 Y121.7932 E2.28479 F6000 ; Print pattern wall
G1 E-10 F2100 ; Retract
G1 Z0.95 F7200 ; Z hop
G0 X127.9312 Y79.3668 F7200 ; Move to next pattern
G1 Z0.85 F7200 ; Z hop return
G1 E10 F2100 ; Un-retract
SET_PRESSURE_ADVANCE ADVANCE=0.4 ; Set pressure advance
M117 PA 0.4
G1 X149.1444 Y100.58 E2.28479 F6000 ; Print pattern wall
G1 X127.9312 Y121.7932 E2.28479 F6000 ; Print pattern wall
G1 E-10 F2100 ; Retract
G1 Z0.95 F7200 ; Z hop
G0 X128.7948 Y79.3668 F7200 ; Move to start next pattern wall
G1 Z0.85 F7200 ; Z hop return
G1 E10 F2100 ; Un-retract
G1 X150.008 Y100.58 E2.28479 F6000 ; Print pattern wall
G1 X128.7948 Y121.7932 E2.28479 F6000 ; Print pattern wall
G1 E-10 F2100 ; Retract
G1 Z0.95 F7200 ; Z hop
G0 X129.6583 Y79.3668 F7200 ; Move to start next pattern wall
G1 Z0.85 F7200 ; Z hop return
G1 E10 F2100 ; Un-retract
G1 X150.8715 Y100.58 E2.28479 F6000 ; Print pattern wall
G1 X129.6583 Y121.7932 E2.28479 F6000 ; Print pattern wall
G1 E-10 F2100 ; Retract
G1 Z0.95 F7200 ; Z hop
G0 X132.3333 Y79.3668 F7200 ; Move to next pattern
G1 Z0.85 F7200 ; Z hop return
G1 E10 F2100 ; Un-retract
SET_PRESSURE_ADVANCE ADVANCE=0.45 ; Set pressure advance
M117 PA 0.45
G1 X153.5465 Y100.58 E2.28479 F6000 ; Print pattern wall
G1 X132.3333 Y121.7932 E2.28479 F6000 ; Print pattern wall
G1 E-10 F2100 ; Retract
G1 Z0.95 F7200 ; Z hop
G0 X133.1969 Y79.3668 F7200 ; Move to start next pattern wall
G1 Z0.85 F7200 ; Z hop return
G1 E10 F2100 ; Un-retract
G1 X154.4101 Y100.58 E2.28479 F6000 ; Print pattern wall
G1 X133.1969 Y121.7932 E2.28479 F6000 ; Print pattern wall
G1 E-10 F2100 ; Retract
G1 Z0.95 F7200 ; Z hop
G0 X134.0604 Y79.3668 F7200 ; Move to start next pattern wall
G1 Z0.85 F7200 ; Z hop return
G1 E10 F2100 ; Un-retract
G1 X155.2736 Y100.58 E2.28479 F6000 ; Print pattern wall
G1 X134.0604 Y121.7932 E2.28479 F6000 ; Print pattern wall
G1 E-10 F2100 ; Retract
G1 Z0.95 F7200 ; Z hop
G0 X136.7354 Y79.3668 F7200 ; Move to next pattern
G1 Z0.85 F7200 ; Z hop return
G1 E10 F2100 ; Un-retract
SET_PRESSURE_ADVANCE ADVANCE=0.5 ; Set pressure advance
M117 PA 0.5
G1 X157.9486 Y100.58 E2.28479 F6000 ; Print pattern wall
G1 X136.7354 Y121.7932 E2.28479 F6000 ; Print pattern wall
G1 E-10 F2100 ; Retract
G1 Z0.95 F7200 ; Z hop
G0 X137.599 Y79.3668 F7200 ; Move to start next pattern wall
G1 Z0.85 F7200 ; Z hop return
G1 E10 F2100 ; Un-retract
G1 X158.8122 Y100.58 E2.28479 F6000 ; Print pattern wall
G1 X137.599 Y121.7932 E2.28479 F6000 ; Print pattern wall
G1 E-10 F2100 ; Retract
G1 Z0.95 F7200 ; Z hop
G0 X138.4625 Y79.3668 F7200 ; Move to start next pattern wall
G1 Z0.85 F7200 ; Z hop return
G1 E10 F2100 ; Un-retract
G1 X159.6757 Y100.58 E2.28479 F6000 ; Print pattern wall
G1 X138.4625 Y121.7932 E2.28479 F6000 ; Print pattern wall
G1 E-10 F2100 ; Retract
G1 Z0.95 F7200 ; Z hop
G0 X141.1375 Y79.3668 F7200 ; Move to next pattern
G1 Z0.85 F7200 ; Z hop return
G1 E10 F2100 ; Un-retract
SET_PRESSURE_ADVANCE ADVANCE=0.55 ; Set pressure advance
M117 PA 0.55
G1 X162.3507 Y100.58 E2.28479 F6000 ; Print pattern wall
G1 X141.1375 Y121.7932 E2.28479 F6000 ; Print pattern wall
G1 E-10 F2100 ; Retract
G1 Z0.95 F7200 ; Z hop
G0 X142.001 Y79.3668 F7200 ; Move to start next pattern wall
G1 Z0.85 F7200 ; Z hop return
G1 E10 F2100 ; Un-retract
G1 X163.2142 Y100.58 E2.28479 F6000 ; Print pattern wall
G1 X142.001 Y121.7932 E2.28479 F6000 ; Print pattern wall
G1 E-10 F2100 ; Retract
G1 Z0.95 F7200 ; Z hop
G0 X142.8646 Y79.3668 F7200 ; Move to start next pattern wall
G1 Z0.85 F7200 ; Z hop return
G1 E10 F2100 ; Un-retract
G1 X164.0778 Y100.58 E2.28479 F6000 ; Print pattern wall
G1 X142.8646 Y121.7932 E2.28479 F6000 ; Print pattern wall
G1 E-10 F2100 ; Retract
G1 Z0.95 F7200 ; Z hop
G0 X145.5396 Y79.3668 F7200 ; Move to next pattern
G1 Z0.85 F7200 ; Z hop return
G1 E10 F2100 ; Un-retract
SET_PRESSURE_ADVANCE ADVANCE=0.6 ; Set pressure advance
M117 PA 0.6
G1 X166.7528 Y100.58 E2.28479 F6000 ; Print pattern wall
G1 X145.5396 Y121.7932 E2.28479 F6000 ; Print pattern wall
G1 E-10 F2100 ; Retract
G1 Z0.95 F7200 ; Z hop
G0 X146.4031 Y79.3668 F7200 ; Move to start next pattern wall
G1 Z0.85 F7200 ; Z hop return
G1 E10 F2100 ; Un-retract
G1 X167.6163 Y100.58 E2.28479 F6000 ; Print pattern wall
G1 X146.4031 Y121.7932 E2.28479 F6000 ; Print pattern wall
G1 E-10 F2100 ; Retract
G1 Z0.95 F7200 ; Z hop
G0 X147.2667 Y79.3668 F7200 ; Move to start next pattern wall
G1 Z0.85 F7200 ; Z hop return
G1 E10 F2100 ; Un-retract
G1 X168.4799 Y100.58 E2.28479 F6000 ; Print pattern wall
G1 X147.2667 Y121.7932 E2.28479 F6000 ; Print pattern wall
G1 E-10 F2100 ; Retract
G1 Z0.95 F7200 ; Z hop
G0 X149.9417 Y79.3668 F7200 ; Move to next pattern
G1 Z0.85 F7200 ; Z hop return
G1 E10 F2100 ; Un-retract
SET_PRESSURE_ADVANCE ADVANCE=0.65 ; Set pressure advance
M117 PA 0.65
G1 X171.1549 Y100.58 E2.28479 F6000 ; Print pattern wall
G1 X149.9417 Y121.7932 E2.28479 F6000 ; Print pattern wall
G1 E-10 F2100 ; Retract
G1 Z0.95 F7200 ; Z hop
G0 X150.8052 Y79.3668 F7200 ; Move to start next pattern wall
G1 Z0.85 F7200 ; Z hop return
G1 E10 F2100 ; Un-retract
G1 X172.0184 Y100.58 E2.28479 F6000 ; Print pattern wall
G1 X150.8052 Y121.7932 E2.28479 F6000 ; Print pattern wall
G1 E-10 F2100 ; Retract
G1 Z0.95 F7200 ; Z hop
G0 X151.6688 Y79.3668 F7200 ; Move to start next pattern wall
G1 Z0.85 F7200 ; Z hop return
G1 E10 F2100 ; Un-retract
G1 X172.882 Y100.58 E2.28479 F6000 ; Print pattern wall
G1 X151.6688 Y121.7932 E2.28479 F6000 ; Print pattern wall
G1 E-10 F2100 ; Retract
G1 Z0.95 F7200 ; Z hop
G0 X154.3438 Y79.3668 F7200 ; Move to next pattern
G1 Z0.85 F7200 ; Z hop return
G1 E10 F2100 ; Un-retract
SET_PRESSURE_ADVANCE ADVANCE=0.7 ; Set pressure advance
M117 PA 0.7
G1 X175.557 Y100.58 E2.28479 F6000 ; Print pattern wall
G1 X154.3438 Y121.7932 E2.28479 F6000 ; Print pattern wall
G1 E-10 F2100 ; Retract
G1 Z0.95 F7200 ; Z hop
G0 X155.2073 Y79.3668 F7200 ; Move to start next pattern wall
G1 Z0.85 F7200 ; Z hop return
G1 E10 F2100 ; Un-retract
G1 X176.4205 Y100.58 E2.28479 F6000 ; Print pattern wall
G1 X155.2073 Y121.7932 E2.28479 F6000 ; Print pattern wall
G1 E-10 F2100 ; Retract
G1 Z0.95 F7200 ; Z hop
G0 X156.0709 Y79.3668 F7200 ; Move to start next pattern wall
G1 Z0.85 F7200 ; Z hop return
G1 E10 F2100 ; Un-retract
G1 X177.2841 Y100.58 E2.28479 F6000 ; Print pattern wall
G1 X156.0709 Y121.7932 E2.28479 F6000 ; Print pattern wall
G1 E-10 F2100 ; Retract
G1 Z0.95 F7200 ; Z hop
G0 X158.7459 Y79.3668 F7200 ; Move to next pattern
G1 Z0.85 F7200 ; Z hop return
G1 E10 F2100 ; Un-retract
SET_PRESSURE_ADVANCE ADVANCE=0.75 ; Set pressure advance
M117 PA 0.75
G1 X179.9591 Y100.58 E2.28479 F6000 ; Print pattern wall
G1 X158.7459 Y121.7932 E2.28479 F6000 ; Print pattern wall
G1 E-10 F2100 ; Retract
G1 Z0.95 F7200 ; Z hop
G0 X159.6094 Y79.3668 F7200 ; Move to start next pattern wall
G1 Z0.85 F7200 ; Z hop return
G1 E10 F2100 ; Un-retract
G1 X180.8226 Y100.58 E2.28479 F6000 ; Print pattern wall
G1 X159.6094 Y121.7932 E2.28479 F6000 ; Print pattern wall
G1 E-10 F2100 ; Retract
G1 Z0.95 F7200 ; Z hop
G0 X160.473 Y79.3668 F7200 ; Move to start next pattern wall
G1 Z0.85 F7200 ; Z hop return
G1 E10 F2100 ; Un-retract
G1 X181.6862 Y100.58 E2.28479 F6000 ; Print pattern wall
G1 X160.473 Y121.7932 E2.28479 F6000 ; Print pattern wall
G1 E-10 F2100 ; Retract
G1 Z0.95 F7200 ; Z hop
G0 X163.148 Y79.3668 F7200 ; Move to next pattern
G1 Z0.85 F7200 ; Z hop return
G1 E10 F2100 ; Un-retract
SET_PRESSURE_ADVANCE ADVANCE=0.8 ; Set pressure advance
M117 PA 0.8
G1 X184.3612 Y100.58 E2.28479 F6000 ; Print pattern wall
G1 X163.148 Y121.7932 E2.28479 F6000 ; Print pattern wall
G1 E-10 F2100 ; Retract
G1 Z0.95 F7200 ; Z hop
G0 X164.0115 Y79.3668 F7200 ; Move to start next pattern wall
G1 Z0.85 F7200 ; Z hop return
G1 E10 F2100 ; Un-retract
G1 X185.2247 Y100.58 E2.28479 F6000 ; Print pattern wall
G1 X164.0115 Y121.7932 E2.28479 F6000 ; Print pattern wall
G1 E-10 F2100 ; Retract
G1 Z0.95 F7200 ; Z hop
G0 X164.8751 Y79.3668 F7200 ; Move to start next pattern wall
G1 Z0.85 F7200 ; Z hop return
G1 E10 F2100 ; Un-retract
G1 X186.0883 Y100.58 E2.28479 F6000 ; Print pattern wall
G1 X164.8751 Y121.7932 E2.28479 F6000 ; Print pattern wall
G1 E-10 F2100 ; Retract
G1 Z0.95 F7200 ; Z hop
G0 X167.5501 Y79.3668 F7200 ; Move to next pattern
G1 Z0.85 F7200 ; Z hop return
G1 E10 F2100 ; Un-retract
SET_PRESSURE_ADVANCE ADVANCE=0.85 ; Set pressure advance
M117 PA 0.85
G1 X188.7633 Y100.58 E2.28479 F6000 ; Print pattern wall
G1 X167.5501 Y121.7932 E2.28479 F6000 ; Print pattern wall
G1 E-10 F2100 ; Retract
G1 Z0.95 F7200 ; Z hop
G0 X168.4136 Y79.3668 F7200 ; Move to start next pattern wall
G1 Z0.85 F7200 ; Z hop return
G1 E10 F2100 ; Un-retract
G1 X189.6268 Y100.58 E2.28479 F6000 ; Print pattern wall
G1 X168.4136 Y121.7932 E2.28479 F6000 ; Print pattern wall
G1 E-10 F2100 ; Retract
G1 Z0.95 F7200 ; Z hop
G0 X169.2771 Y79.3668 F7200 ; Move to start next pattern wall
G1 Z0.85 F7200 ; Z hop return
G1 E10 F2100 ; Un-retract
G1 X190.4903 Y100.58 E2.28479 F6000 ; Print pattern wall
G1 X169.2771 Y121.7932 E2.28479 F6000 ; Print pattern wall
G1 E-10 F2100 ; Retract
G1 Z0.95 F7200 ; Z hop
G0 X171.9521 Y79.3668 F7200 ; Move to next pattern
G1 Z0.85 F7200 ; Z hop return
G1 E10 F2100 ; Un-retract
SET_PRESSURE_ADVANCE ADVANCE=0.9 ; Set pressure advance
M117 PA 0.9
G1 X193.1653 Y100.58 E2.28479 F6000 ; Print pattern wall
G1 X171.9521 Y121.7932 E2.28479 F6000 ; Print pattern wall
G1 E-10 F2100 ; Retract
G1 Z0.95 F7200 ; Z hop
G0 X172.8157 Y79.3668 F7200 ; Move to start next pattern wall
G1 Z0.85 F7200 ; Z hop return
G1 E10 F2100 ; Un-retract
G1 X194.0289 Y100.58 E2.28479 F6000 ; Print pattern wall
G1 X172.8157 Y121.7932 E2.28479 F6000 ; Print pattern wall
G1 E-10 F2100 ; Retract
G1 Z0.95 F7200 ; Z hop
G0 X173.6792 Y79.3668 F7200 ; Move to start next pattern wall
G1 Z0.85 F7200 ; Z hop return
G1 E10 F2100 ; Un-retract
G1 X194.8924 Y100.58 E2.28479 F6000 ; Print pattern wall
G1 X173.6792 Y121.7932 E2.28479 F6000 ; Print pattern wall
G1 E-10 F2100 ; Retract
G1 Z0.95 F7200 ; Z hop
G0 X176.3542 Y79.3668 F7200 ; Move to next pattern
G1 Z0.85 F7200 ; Z hop return
G1 E10 F2100 ; Un-retract
SET_PRESSURE_ADVANCE ADVANCE=0.95 ; Set pressure advance
M117 PA 0.95
G1 X197.5674 Y100.58 E2.28479 F6000 ; Print pattern wall
G1 X176.3542 Y121.7932 E2.28479 F6000 ; Print pattern wall
G1 E-10 F2100 ; Retract
G1 Z0.95 F7200 ; Z hop
G0 X177.2178 Y79.3668 F7200 ; Move to start next pattern wall
G1 Z0.85 F7200 ; Z hop return
G1 E10 F2100 ; Un-retract
G1 X198.431 Y100.58 E2.28479 F6000 ; Print pattern wall
G1 X177.2178 Y121.7932 E2.28479 F6000 ; Print pattern wall
G1 E-10 F2100 ; Retract
G1 Z0.95 F7200 ; Z hop
G0 X178.0813 Y79.3668 F7200 ; Move to start next pattern wall
G1 Z0.85 F7200 ; Z hop return
G1 E10 F2100 ; Un-retract
G1 X199.2945 Y100.58 E2.28479 F6000 ; Print pattern wall
G1 X178.0813 Y121.7932 E2.28479 F6000 ; Print pattern wall
G1 E-10 F2100 ; Retract
G1 Z0.95 F7200 ; Z hop
G0 X180.7563 Y79.3668 F7200 ; Move to next pattern
G1 Z0.85 F7200 ; Z hop return
G1 E10 F2100 ; Un-retract
SET_PRESSURE_ADVANCE ADVANCE=1 ; Set pressure advance
M117 PA 1
G1 X201.9695 Y100.58 E2.28479 F6000 ; Print pattern wall
G1 X180.7563 Y121.7932 E2.28479 F6000 ; Print pattern wall
G1 E-10 F2100 ; Retract
G1 Z0.95 F7200 ; Z hop
G0 X181.6199 Y79.3668 F7200 ; Move to start next pattern wall
G1 Z0.85 F7200 ; Z hop return
G1 E10 F2100 ; Un-retract
G1 X202.8331 Y100.58 E2.28479 F6000 ; Print pattern wall
G1 X181.6199 Y121.7932 E2.28479 F6000 ; Print pattern wall
G1 E-10 F2100 ; Retract
G1 Z0.95 F7200 ; Z hop
G0 X182.4834 Y79.3668 F7200 ; Move to start next pattern wall
G1 Z0.85 F7200 ; Z hop return
G1 E10 F2100 ; Un-retract
G1 X203.6966 Y100.58 E2.28479 F6000 ; Print pattern wall
G1 X182.4834 Y121.7932 E2.28479 F6000 ; Print pattern wall
G1 E-10 F2100 ; Retract
G1 Z0.95 F7200 ; Z hop
G0 X92.7145 Y79.3668 F7200 ; Move back to start position
G1 Z0.85 F7200 ; Z hop return
G1 E10 F2100 ; Un-retract
G0 Z1.15 F7200 ; Move to layer height
SET_PRESSURE_ADVANCE ADVANCE=0 ; Set pressure advance
M117 PA 0
G1 X113.9277 Y100.58 E2.28479 F6000 ; Print pattern wall
G1 X92.7145 Y121.7932 E2.28479 F6000 ; Print pattern wall
G1 E-10 F2100 ; Retract
G1 Z1.25 F7200 ; Z hop
G0 X93.578 Y79.3668 F7200 ; Move to start next pattern wall
G1 Z1.15 F7200 ; Z hop return
G1 E10 F2100 ; Un-retract
G1 X114.7912 Y100.58 E2.28479 F6000 ; Print pattern wall
G1 X93.578 Y121.7932 E2.28479 F6000 ; Print pattern wall
G1 E-10 F2100 ; Retract
G1 Z1.25 F7200 ; Z hop
G0 X94.4416 Y79.3668 F7200 ; Move to start next pattern wall
G1 Z1.15 F7200 ; Z hop return
G1 E10 F2100 ; Un-retract
G1 X115.6548 Y100.58 E2.28479 F6000 ; Print pattern wall
G1 X94.4416 Y121.7932 E2.28479 F6000 ; Print pattern wall
G1 E-10 F2100 ; Retract
G1 Z1.25 F7200 ; Z hop
G0 X97.1166 Y79.3668 F7200 ; Move to next pattern
G1 Z1.15 F7200 ; Z hop return
G1 E10 F2100 ; Un-retract
SET_PRESSURE_ADVANCE ADVANCE=0.05 ; Set pressure advance
M117 PA 0.05
G1 X118.3298 Y100.58 E2.28479 F6000 ; Print pattern wall
G1 X97.1166 Y121.7932 E2.28479 F6000 ; Print pattern wall
G1 E-10 F2100 ; Retract
G1 Z1.25 F7200 ; Z hop
G0 X97.9801 Y79.3668 F7200 ; Move to start next pattern wall
G1 Z1.15 F7200 ; Z hop return
G1 E10 F2100 ; Un-retract
G1 X119.1933 Y100.58 E2.28479 F6000 ; Print pattern wall
G1 X97.9801 Y121.7932 E2.28479 F6000 ; Print pattern wall
G1 E-10 F2100 ; Retract
G1 Z1.25 F7200 ; Z hop
G0 X98.8437 Y79.3668 F7200 ; Move to start next pattern wall
G1 Z1.15 F7200 ; Z hop return
G1 E10 F2100 ; Un-retract
G1 X120.0569 Y100.58 E2.28479 F6000 ; Print pattern wall
G1 X98.8437 Y121.7932 E2.28479 F6000 ; Print pattern wall
G1 E-10 F2100 ; Retract
G1 Z1.25 F7200 ; Z hop
G0 X101.5187 Y79.3668 F7200 ; Move to next pattern
G1 Z1.15 F7200 ; Z hop return
G1 E10 F2100 ; Un-retract
SET_PRESSURE_ADVANCE ADVANCE=0.1 ; Set pressure advance
M117 PA 0.1
G1 X122.7319 Y100.58 E2.28479 F6000 ; Print pattern wall
G1 X101.5187 Y121.7932 E2.28479 F6000 ; Print pattern wall
G1 E-10 F2100 ; Retract
G1 Z1.25 F7200 ; Z hop
G0 X102.3822 Y79.3668 F7200 ; Move to start next pattern wall
G1 Z1.15 F7200 ; Z hop return
G1 E10 F2100 ; Un-retract
G1 X123.5954 Y100.58 E2.28479 F6000 ; Print pattern wall
G1 X102.3822 Y121.7932 E2.28479 F6000 ; Print pattern wall
G1 E-10 F2100 ; Retract
G1 Z1.25 F7200 ; Z hop
G0 X103.2458 Y79.3668 F7200 ; Move to start next pattern wall
G1 Z1.15 F7200 ; Z hop return
G1 E10 F2100 ; Un-retract
G1 X124.459 Y100.58 E2.28479 F6000 ; Print pattern wall
G1 X103.2458 Y121.7932 E2.28479 F6000 ; Print pattern wall
G1 E-10 F2100 ; Retract
G1 Z1.25 F7200 ; Z hop
G0 X105.9208 Y79.3668 F7200 ; Move to next pattern
G1 Z1.15 F7200 ; Z hop return
G1 E10 F2100 ; Un-retract
SET_PRESSURE_ADVANCE ADVANCE=0.15 ; Set pressure advance
M117 PA 0.15
G1 X127.134 Y100.58 E2.28479 F6000 ; Print pattern wall
G1 X105.9208 Y121.7932 E2.28479 F6000 ; Print pattern wall
G1 E-10 F2100 ; Retract
G1 Z1.25 F7200 ; Z hop
G0 X106.7843 Y79.3668 F7200 ; Move to start next pattern wall
G1 Z1.15 F7200 ; Z hop return
G1 E10 F2100 ; Un-retract
G1 X127.9975 Y100.58 E2.28479 F6000 ; Print pattern wall
G1 X106.7843 Y121.7932 E2.28479 F6000 ; Print pattern wall
G1 E-10 F2100 ; Retract
G1 Z1.25 F7200 ; Z hop
G0 X107.6478 Y79.3668 F7200 ; Move to start next pattern wall
G1 Z1.15 F7200 ; Z hop return
G1 E10 F2100 ; Un-retract
G1 X128.8611 Y100.58 E2.28479 F6000 ; Print pattern wall
G1 X107.6478 Y121.7932 E2.28479 F6000 ; Print pattern wall
G1 E-10 F2100 ; Retract
G1 Z1.25 F7200 ; Z hop
G0 X110.3228 Y79.3668 F7200 ; Move to next pattern
G1 Z1.15 F7200 ; Z hop return
G1 E10 F2100 ; Un-retract
SET_PRESSURE_ADVANCE ADVANCE=0.2 ; Set pressure advance
M117 PA 0.2
G1 X131.5361 Y100.58 E2.28479 F6000 ; Print pattern wall
G1 X110.3228 Y121.7932 E2.28479 F6000 ; Print pattern wall
G1 E-10 F2100 ; Retract
G1 Z1.25 F7200 ; Z hop
G0 X111.1864 Y79.3668 F7200 ; Move to start next pattern wall
G1 Z1.15 F7200 ; Z hop return
G1 E10 F2100 ; Un-retract
G1 X132.3996 Y100.58 E2.28479 F6000 ; Print pattern wall
G1 X111.1864 Y121.7932 E2.28479 F6000 ; Print pattern wall
G1 E-10 F2100 ; Retract
G1 Z1.25 F7200 ; Z hop
G0 X112.0499 Y79.3668 F7200 ; Move to start next pattern wall
G1 Z1.15 F7200 ; Z hop return
G1 E10 F2100 ; Un-retract
G1 X133.2631 Y100.58 E2.28479 F6000 ; Print pattern wall
G1 X112.0499 Y121.7932 E2.28479 F6000 ; Print pattern wall
G1 E-10 F2100 ; Retract
G1 Z1.25 F7200 ; Z hop
G0 X114.7249 Y79.3668 F7200 ; Move to next pattern
G1 Z1.15 F7200 ; Z hop return
G1 E10 F2100 ; Un-retract
SET_PRESSURE_ADVANCE ADVANCE=0.25 ; Set pressure advance
M117 PA 0.25
G1 X135.9381 Y100.58 E2.28479 F6000 ; Print pattern wall
G1 X114.7249 Y121.7932 E2.28479 F6000 ; Print pattern wall
G1 E-10 F2100 ; Retract
G1 Z1.25 F7200 ; Z hop
G0 X115.5885 Y79.3668 F7200 ; Move to start next pattern wall
G1 Z1.15 F7200 ; Z hop return
G1 E10 F2100 ; Un-retract
G1 X136.8017 Y100.58 E2.28479 F6000 ; Print pattern wall
G1 X115.5885 Y121.7932 E2.28479 F6000 ; Print pattern wall
G1 E-10 F2100 ; Retract
G1 Z1.25 F7200 ; Z hop
G0 X116.452 Y79.3668 F7200 ; Move to start next pattern wall
G1 Z1.15 F7200 ; Z hop return
G1 E10 F2100 ; Un-retract
G1 X137.6652 Y100.58 E2.28479 F6000 ; Print pattern wall
G1 X116.452 Y121.7932 E2.28479 F6000 ; Print pattern wall
G1 E-10 F2100 ; Retract
G1 Z1.25 F7200 ; Z hop
G0 X119.127 Y79.3668 F7200 ; Move to next pattern
G1 Z1.15 F7200 ; Z hop return
G1 E10 F2100 ; Un-retract
SET_PRESSURE_ADVANCE ADVANCE=0.3 ; Set pressure advance
M117 PA 0.3
G1 X140.3402 Y100.58 E2.28479 F6000 ; Print pattern wall
G1 X119.127 Y121.7932 E2.28479 F6000 ; Print pattern wall
G1 E-10 F2100 ; Retract
G1 Z1.25 F7200 ; Z hop
G0 X119.9906 Y79.3668 F7200 ; Move to start next pattern wall
G1 Z1.15 F7200 ; Z hop return
G1 E10 F2100 ; Un-retract
G1 X141.2038 Y100.58 E2.28479 F6000 ; Print pattern wall
G1 X119.9906 Y121.7932 E2.28479 F6000 ; Print pattern wall
G1 E-10 F2100 ; Retract
G1 Z1.25 F7200 ; Z hop
G0 X120.8541 Y79.3668 F7200 ; Move to start next pattern wall
G1 Z1.15 F7200 ; Z hop return
G1 E10 F2100 ; Un-retract
G1 X142.0673 Y100.58 E2.28479 F6000 ; Print pattern wall
G1 X120.8541 Y121.7932 E2.28479 F6000 ; Print pattern wall
G1 E-10 F2100 ; Retract
G1 Z1.25 F7200 ; Z hop
G0 X123.5291 Y79.3668 F7200 ; Move to next pattern
G1 Z1.15 F7200 ; Z hop return
G1 E10 F2100 ; Un-retract
SET_PRESSURE_ADVANCE ADVANCE=0.35 ; Set pressure advance
M117 PA 0.35
G1 X144.7423 Y100.58 E2.28479 F6000 ; Print pattern wall
G1 X123.5291 Y121.7932 E2.28479 F6000 ; Print pattern wall
G1 E-10 F2100 ; Retract
G1 Z1.25 F7200 ; Z hop
G0 X124.3927 Y79.3668 F7200 ; Move to start next pattern wall
G1 Z1.15 F7200 ; Z hop return
G1 E10 F2100 ; Un-retract
G1 X145.6059 Y100.58 E2.28479 F6000 ; Print pattern wall
G1 X124.3927 Y121.7932 E2.28479 F6000 ; Print pattern wall
G1 E-10 F2100 ; Retract
G1 Z1.25 F7200 ; Z hop
G0 X125.2562 Y79.3668 F7200 ; Move to start next pattern wall
G1 Z1.15 F7200 ; Z hop return
G1 E10 F2100 ; Un-retract
G1 X146.4694 Y100.58 E2.28479 F6000 ; Print pattern wall
G1 X125.2562 Y121.7932 E2.28479 F6000 ; Print pattern wall
G1 E-10 F2100 ; Retract
G1 Z1.25 F7200 ; Z hop
G0 X127.9312 Y79.3668 F7200 ; Move to next pattern
G1 Z1.15 F7200 ; Z hop return
G1 E10 F2100 ; Un-retract
SET_PRESSURE_ADVANCE ADVANCE=0.4 ; Set pressure advance
M117 PA 0.4
G1 X149.1444 Y100.58 E2.28479 F6000 ; Print pattern wall
G1 X127.9312 Y121.7932 E2.28479 F6000 ; Print pattern wall
G1 E-10 F2100 ; Retract
G1 Z1.25 F7200 ; Z hop
G0 X128.7948 Y79.3668 F7200 ; Move to start next pattern wall
G1 Z1.15 F7200 ; Z hop return
G1 E10 F2100 ; Un-retract
G1 X150.008 Y100.58 E2.28479 F6000 ; Print pattern wall
G1 X128.7948 Y121.7932 E2.28479 F6000 ; Print pattern wall
G1 E-10 F2100 ; Retract
G1 Z1.25 F7200 ; Z hop
G0 X129.6583 Y79.3668 F7200 ; Move to start next pattern wall
G1 Z1.15 F7200 ; Z hop return
G1 E10 F2100 ; Un-retract
G1 X150.8715 Y100.58 E2.28479 F6000 ; Print pattern wall
G1 X129.6583 Y121.7932 E2.28479 F6000 ; Print pattern wall
G1 E-10 F2100 ; Retract
G1 Z1.25 F7200 ; Z hop
G0 X132.3333 Y79.3668 F7200 ; Move to next pattern
G1 Z1.15 F7200 ; Z hop return
G1 E10 F2100 ; Un-retract
SET_PRESSURE_ADVANCE ADVANCE=0.45 ; Set pressure advance
M117 PA 0.45
G1 X153.5465 Y100.58 E2.28479 F6000 ; Print pattern wall
G1 X132.3333 Y121.7932 E2.28479 F6000 ; Print pattern wall
G1 E-10 F2100 ; Retract
G1 Z1.25 F7200 ; Z hop
G0 X133.1969 Y79.3668 F7200 ; Move to start next pattern wall
G1 Z1.15 F7200 ; Z hop return
G1 E10 F2100 ; Un-retract
G1 X154.4101 Y100.58 E2.28479 F6000 ; Print pattern wall
G1 X133.1969 Y121.7932 E2.28479 F6000 ; Print pattern wall
G1 E-10 F2100 ; Retract
G1 Z1.25 F7200 ; Z hop
G0 X134.0604 Y79.3668 F7200 ; Move to start next pattern wall
G1 Z1.15 F7200 ; Z hop return
G1 E10 F2100 ; Un-retract
G1 X155.2736 Y100.58 E2.28479 F6000 ; Print pattern wall
G1 X134.0604 Y121.7932 E2.28479 F6000 ; Print pattern wall
G1 E-10 F2100 ; Retract
G1 Z1.25 F7200 ; Z hop
G0 X136.7354 Y79.3668 F7200 ; Move to next pattern
G1 Z1.15 F7200 ; Z hop return
G1 E10 F2100 ; Un-retract
SET_PRESSURE_ADVANCE ADVANCE=0.5 ; Set pressure advance
M117 PA 0.5
G1 X157.9486 Y100.58 E2.28479 F6000 ; Print pattern wall
G1 X136.7354 Y121.7932 E2.28479 F6000 ; Print pattern wall
G1 E-10 F2100 ; Retract
G1 Z1.25 F7200 ; Z hop
G0 X137.599 Y79.3668 F7200 ; Move to start next pattern wall
G1 Z1.15 F7200 ; Z hop return
G1 E10 F2100 ; Un-retract
G1 X158.8122 Y100.58 E2.28479 F6000 ; Print pattern wall
G1 X137.599 Y121.7932 E2.28479 F6000 ; Print pattern wall
G1 E-10 F2100 ; Retract
G1 Z1.25 F7200 ; Z hop
G0 X138.4625 Y79.3668 F7200 ; Move to start next pattern wall
G1 Z1.15 F7200 ; Z hop return
G1 E10 F2100 ; Un-retract
G1 X159.6757 Y100.58 E2.28479 F6000 ; Print pattern wall
G1 X138.4625 Y121.7932 E2.28479 F6000 ; Print pattern wall
G1 E-10 F2100 ; Retract
G1 Z1.25 F7200 ; Z hop
G0 X141.1375 Y79.3668 F7200 ; Move to next pattern
G1 Z1.15 F7200 ; Z hop return
G1 E10 F2100 ; Un-retract
SET_PRESSURE_ADVANCE ADVANCE=0.55 ; Set pressure advance
M117 PA 0.55
G1 X162.3507 Y100.58 E2.28479 F6000 ; Print pattern wall
G1 X141.1375 Y121.7932 E2.28479 F6000 ; Print pattern wall
G1 E-10 F2100 ; Retract
G1 Z1.25 F7200 ; Z hop
G0 X142.001 Y79.3668 F7200 ; Move to start next pattern wall
G1 Z1.15 F7200 ; Z hop return
G1 E10 F2100 ; Un-retract
G1 X163.2142 Y100.58 E2.28479 F6000 ; Print pattern wall
G1 X142.001 Y121.7932 E2.28479 F6000 ; Print pattern wall
G1 E-10 F2100 ; Retract
G1 Z1.25 F7200 ; Z hop
G0 X142.8646 Y79.3668 F7200 ; Move to start next pattern wall
G1 Z1.15 F7200 ; Z hop return
G1 E10 F2100 ; Un-retract
G1 X164.0778 Y100.58 E2.28479 F6000 ; Print pattern wall
G1 X142.8646 Y121.7932 E2.28479 F6000 ; Print pattern wall
G1 E-10 F2100 ; Retract
G1 Z1.25 F7200 ; Z hop
G0 X145.5396 Y79.3668 F7200 ; Move to next pattern
G1 Z1.15 F7200 ; Z hop return
G1 E10 F2100 ; Un-retract
SET_PRESSURE_ADVANCE ADVANCE=0.6 ; Set pressure advance
M117 PA 0.6
G1 X166.7528 Y100.58 E2.28479 F6000 ; Print pattern wall
G1 X145.5396 Y121.7932 E2.28479 F6000 ; Print pattern wall
G1 E-10 F2100 ; Retract
G1 Z1.25 F7200 ; Z hop
G0 X146.4031 Y79.3668 F7200 ; Move to start next pattern wall
G1 Z1.15 F7200 ; Z hop return
G1 E10 F2100 ; Un-retract
G1 X167.6163 Y100.58 E2.28479 F6000 ; Print pattern wall
G1 X146.4031 Y121.7932 E2.28479 F6000 ; Print pattern wall
G1 E-10 F2100 ; Retract
G1 Z1.25 F7200 ; Z hop
G0 X147.2667 Y79.3668 F7200 ; Move to start next pattern wall
G1 Z1.15 F7200 ; Z hop return
G1 E10 F2100 ; Un-retract
G1 X168.4799 Y100.58 E2.28479 F6000 ; Print pattern wall
G1 X147.2667 Y121.7932 E2.28479 F6000 ; Print pattern wall
G1 E-10 F2100 ; Retract
G1 Z1.25 F7200 ; Z hop
G0 X149.9417 Y79.3668 F7200 ; Move to next pattern
G1 Z1.15 F7200 ; Z hop return
G1 E10 F2100 ; Un-retract
SET_PRESSURE_ADVANCE ADVANCE=0.65 ; Set pressure advance
M117 PA 0.65
G1 X171.1549 Y100.58 E2.28479 F6000 ; Print pattern wall
G1 X149.9417 Y121.7932 E2.28479 F6000 ; Print pattern wall
G1 E-10 F2100 ; Retract
G1 Z1.25 F7200 ; Z hop
G0 X150.8052 Y79.3668 F7200 ; Move to start next pattern wall
G1 Z1.15 F7200 ; Z hop return
G1 E10 F2100 ; Un-retract
G1 X172.0184 Y100.58 E2.28479 F6000 ; Print pattern wall
G1 X150.8052 Y121.7932 E2.28479 F6000 ; Print pattern wall
G1 E-10 F2100 ; Retract
G1 Z1.25 F7200 ; Z hop
G0 X151.6688 Y79.3668 F7200 ; Move to start next pattern wall
G1 Z1.15 F7200 ; Z hop return
G1 E10 F2100 ; Un-retract
G1 X172.882 Y100.58 E2.28479 F6000 ; Print pattern wall
G1 X151.6688 Y121.7932 E2.28479 F6000 ; Print pattern wall
G1 E-10 F2100 ; Retract
G1 Z1.25 F7200 ; Z hop
G0 X154.3438 Y79.3668 F7200 ; Move to next pattern
G1 Z1.15 F7200 ; Z hop return
G1 E10 F2100 ; Un-retract
SET_PRESSURE_ADVANCE ADVANCE=0.7 ; Set pressure advance
M117 PA 0.7
G1 X175.557 Y100.58 E2.28479 F6000 ; Print pattern wall
G1 X154.3438 Y121.7932 E2.28479 F6000 ; Print pattern wall
G1 E-10 F2100 ; Retract
G1 Z1.25 F7200 ; Z hop
G0 X155.2073 Y79.3668 F7200 ; Move to start next pattern wall
G1 Z1.15 F7200 ; Z hop return
G1 E10 F2100 ; Un-retract
G1 X176.4205 Y100.58 E2.28479 F6000 ; Print pattern wall
G1 X155.2073 Y121.7932 E2.28479 F6000 ; Print pattern wall
G1 E-10 F2100 ; Retract
G1 Z1.25 F7200 ; Z hop
G0 X156.0709 Y79.3668 F7200 ; Move to start next pattern wall
G1 Z1.15 F7200 ; Z hop return
G1 E10 F2100 ; Un-retract
G1 X177.2841 Y100.58 E2.28479 F6000 ; Print pattern wall
G1 X156.0709 Y121.7932 E2.28479 F6000 ; Print pattern wall
G1 E-10 F2100 ; Retract
G1 Z1.25 F7200 ; Z hop
G0 X158.7459 Y79.3668 F7200 ; Move to next pattern
G1 Z1.15 F7200 ; Z hop return
G1 E10 F2100 ; Un-retract
SET_PRESSURE_ADVANCE ADVANCE=0.75 ; Set pressure advance
M117 PA 0.75
G1 X179.9591 Y100.58 E2.28479 F6000 ; Print pattern wall
G1 X158.7459 Y121.7932 E2.28479 F6000 ; Print pattern wall
G1 E-10 F2100 ; Retract
G1 Z1.25 F7200 ; Z hop
G0 X159.6094 Y79.3668 F7200 ; Move to start next pattern wall
G1 Z1.15 F7200 ; Z hop return
G1 E10 F2100 ; Un-retract
G1 X180.8226 Y100.58 E2.28479 F6000 ; Print pattern wall
G1 X159.6094 Y121.7932 E2.28479 F6000 ; Print pattern wall
G1 E-10 F2100 ; Retract
G1 Z1.25 F7200 ; Z hop
G0 X160.473 Y79.3668 F7200 ; Move to start next pattern wall
G1 Z1.15 F7200 ; Z hop return
G1 E10 F2100 ; Un-retract
G1 X181.6862 Y100.58 E2.28479 F6000 ; Print pattern wall
G1 X160.473 Y121.7932 E2.28479 F6000 ; Print pattern wall
G1 E-10 F2100 ; Retract
G1 Z1.25 F7200 ; Z hop
G0 X163.148 Y79.3668 F7200 ; Move to next pattern
G1 Z1.15 F7200 ; Z hop return
G1 E10 F2100 ; Un-retract
SET_PRESSURE_ADVANCE ADVANCE=0.8 ; Set pressure advance
M117 PA 0.8
G1 X184.3612 Y100.58 E2.28479 F6000 ; Print pattern wall
G1 X163.148 Y121.7932 E2.28479 F6000 ; Print pattern wall
G1 E-10 F2100 ; Retract
G1 Z1.25 F7200 ; Z hop
G0 X164.0115 Y79.3668 F7200 ; Move to start next pattern wall
G1 Z1.15 F7200 ; Z hop return
G1 E10 F2100 ; Un-retract
G1 X185.2247 Y100.58 E2.28479 F6000 ; Print pattern wall
G1 X164.0115 Y121.7932 E2.28479 F6000 ; Print pattern wall
G1 E-10 F2100 ; Retract
G1 Z1.25 F7200 ; Z hop
G0 X164.8751 Y79.3668 F7200 ; Move to start next pattern wall
G1 Z1.15 F7200 ; Z hop return
G1 E10 F2100 ; Un-retract
G1 X186.0883 Y100.58 E2.28479 F6000 ; Print pattern wall
G1 X164.8751 Y121.7932 E2.28479 F6000 ; Print pattern wall
G1 E-10 F2100 ; Retract
G1 Z1.25 F7200 ; Z hop
G0 X167.5501 Y79.3668 F7200 ; Move to next pattern
G1 Z1.15 F7200 ; Z hop return
G1 E10 F2100 ; Un-retract
SET_PRESSURE_ADVANCE ADVANCE=0.85 ; Set pressure advance
M117 PA 0.85
G1 X188.7633 Y100.58 E2.28479 F6000 ; Print pattern wall
G1 X167.5501 Y121.7932 E2.28479 F6000 ; Print pattern wall
G1 E-10 F2100 ; Retract
G1 Z1.25 F7200 ; Z hop
G0 X168.4136 Y79.3668 F7200 ; Move to start next pattern wall
G1 Z1.15 F7200 ; Z hop return
G1 E10 F2100 ; Un-retract
G1 X189.6268 Y100.58 E2.28479 F6000 ; Print pattern wall
G1 X168.4136 Y121.7932 E2.28479 F6000 ; Print pattern wall
G1 E-10 F2100 ; Retract
G1 Z1.25 F7200 ; Z hop
G0 X169.2771 Y79.3668 F7200 ; Move to start next pattern wall
G1 Z1.15 F7200 ; Z hop return
G1 E10 F2100 ; Un-retract
G1 X190.4903 Y100.58 E2.28479 F6000 ; Print pattern wall
G1 X169.2771 Y121.7932 E2.28479 F6000 ; Print pattern wall
G1 E-10 F2100 ; Retract
G1 Z1.25 F7200 ; Z hop
G0 X171.9521 Y79.3668 F7200 ; Move to next pattern
G1 Z1.15 F7200 ; Z hop return
G1 E10 F2100 ; Un-retract
SET_PRESSURE_ADVANCE ADVANCE=0.9 ; Set pressure advance
M117 PA 0.9
G1 X193.1653 Y100.58 E2.28479 F6000 ; Print pattern wall
G1 X171.9521 Y121.7932 E2.28479 F6000 ; Print pattern wall
G1 E-10 F2100 ; Retract
G1 Z1.25 F7200 ; Z hop
G0 X172.8157 Y79.3668 F7200 ; Move to start next pattern wall
G1 Z1.15 F7200 ; Z hop return
G1 E10 F2100 ; Un-retract
G1 X194.0289 Y100.58 E2.28479 F6000 ; Print pattern wall
G1 X172.8157 Y121.7932 E2.28479 F6000 ; Print pattern wall
G1 E-10 F2100 ; Retract
G1 Z1.25 F7200 ; Z hop
G0 X173.6792 Y79.3668 F7200 ; Move to start next pattern wall
G1 Z1.15 F7200 ; Z hop return
G1 E10 F2100 ; Un-retract
G1 X194.8924 Y100.58 E2.28479 F6000 ; Print pattern wall
G1 X173.6792 Y121.7932 E2.28479 F6000 ; Print pattern wall
G1 E-10 F2100 ; Retract
G1 Z1.25 F7200 ; Z hop
G0 X176.3542 Y79.3668 F7200 ; Move to next pattern
G1 Z1.15 F7200 ; Z hop return
G1 E10 F2100 ; Un-retract
SET_PRESSURE_ADVANCE ADVANCE=0.95 ; Set pressure advance
M117 PA 0.95
G1 X197.5674 Y100.58 E2.28479 F6000 ; Print pattern wall
G1 X176.3542 Y121.7932 E2.28479 F6000 ; Print pattern wall
G1 E-10 F2100 ; Retract
G1 Z1.25 F7200 ; Z hop
G0 X177.2178 Y79.3668 F7200 ; Move to start next pattern wall
G1 Z1.15 F7200 ; Z hop return
G1 E10 F2100 ; Un-retract
G1 X198.431 Y100.58 E2.28479 F6000 ; Print pattern wall
G1 X177.2178 Y121.7932 E2.28479 F6000 ; Print pattern wall
G1 E-10 F2100 ; Retract
G1 Z1.25 F7200 ; Z hop
G0 X178.0813 Y79.3668 F7200 ; Move to start next pattern wall
G1 Z1.15 F7200 ; Z hop return
G1 E10 F2100 ; Un-retract
G1 X199.2945 Y100.58 E2.28479 F6000 ; Print pattern wall
G1 X178.0813 Y121.7932 E2.28479 F6000 ; Print pattern wall
G1 E-10 F2100 ; Retract
G1 Z1.25 F7200 ; Z hop
G0 X180.7563 Y79.3668 F7200 ; Move to next pattern
G1 Z1.15 F7200 ; Z hop return
G1 E10 F2100 ; Un-retract
SET_PRESSURE_ADVANCE ADVANCE=1 ; Set pressure advance
M117 PA 1
G1 X201.9695 Y100.58 E2.28479 F6000 ; Print pattern wall
G1 X180.7563 Y121.7932 E2.28479 F6000 ; Print pattern wall
G1 E-10 F2100 ; Retract
G1 Z1.25 F7200 ; Z hop
G0 X181.6199 Y79.3668 F7200 ; Move to start next pattern wall
G1 Z1.15 F7200 ; Z hop return
G1 E10 F2100 ; Un-retract
G1 X202.8331 Y100.58 E2.28479 F6000 ; Print pattern wall
G1 X181.6199 Y121.7932 E2.28479 F6000 ; Print pattern wall
G1 E-10 F2100 ; Retract
G1 Z1.25 F7200 ; Z hop
G0 X182.4834 Y79.3668 F7200 ; Move to start next pattern wall
G1 Z1.15 F7200 ; Z hop return
G1 E10 F2100 ; Un-retract
G1 X203.6966 Y100.58 E2.28479 F6000 ; Print pattern wall
G1 X182.4834 Y121.7932 E2.28479 F6000 ; Print pattern wall
SET_PRESSURE_ADVANCE ADVANCE=0 ; Set pressure advance back to start value
M117 PA 0
G1 E-10 F2100 ; Retract
G1 Z1.25 F7200 ; Z hop
G0 Z6.15 F7200 ; Z raise
M104 S0 ; Turn off hotend
M140 S0 ; Turn off bed
M107    ; Turn off fan
;
; End G-code
;
PRINT_END ; End macro. Change name to match yours
;
; FINISH
;
